Name,City,State,Phone,Link
TLC Pet & Uptown Cat Hospital,Albuquerque,NM,(505) 271-2287,http://www.findalocalvet.com/Profiles/TLC-Pet-Uptown-Cat-Hospital.aspx
Schrag Animal Clinic,Oklahoma City,OK,(405) 681-0829,http://www.findalocalvet.com/Profiles/Schrag-Animal-Clinic.aspx
Abadie Veterinary Hospital,Harahan,LA,,http://www.findalocalvet.com/Profiles/Abadie-Veterinary-Hospital.aspx
St Paul Veterinary Clinic,Milwaukee,WI,,http://www.findalocalvet.com/Profiles/St-Paul-Veterinary-Clinic2.aspx
Animal Hospital of West Nashville,Nashville,TN,(615) 356-8993,http://www.findalocalvet.com/Profiles/Animal-Hospital-of-West-Nashville.aspx
State Street Dog & Cat Hosp,Milwaukee,WI,,http://www.findalocalvet.com/Profiles/State-Street-Dog-Cat-Hosp.aspx
Caring for Cats,Philadelphia,PA,(215) 509-6060,http://www.findalocalvet.com/Profiles/Caring-for-Cats.aspx
Point Loma Veterinary Clinic,San Diego,CA,(619) 222-4482,http://www.findalocalvet.com/Profiles/Point-Loma-Veterinary-Clinic.aspx
McGehee Clinic for Animals,Memphis,TN,(901) 682-5684,http://www.findalocalvet.com/Profiles/McGehee-Clinic-for-Animals.aspx
Veterinary Ophthalmology Spec,Minneapolis,MN,(952) 929-8299,http://www.findalocalvet.com/Profiles/Veterinary-Ophthalmology-Spec.aspx
The Lake Veterinary Hospital,Oakland,CA,(510) 452-1255,http://www.findalocalvet.com/Profiles/The-Lake-Veterinary-Hospital.aspx
Claremont Veterinary Hospital,Oakland,CA,,http://www.findalocalvet.com/Profiles/Claremont-Veterinary-Hospital.aspx
Apache Animal Clinic & Hospital,Minneapolis,MN,(612) 781-2734,http://www.findalocalvet.com/Profiles/Apache-Animal-Clinic-Hospital.aspx
South Mountain Vet Clinic,Phoenix,AZ,(480) 759-4800,http://www.findalocalvet.com/Profiles/South-Mountain-Vet-Clinic.aspx
Broadway Pet Hospital,Oakland,CA,(510) 653-0212,http://www.findalocalvet.com/Profiles/Broadway-Pet-Hospital.aspx
Value Vet II,Nashville,TN,,http://www.findalocalvet.com/Profiles/Value-Vet-II.aspx
Acequia Animal Hospital,Albuquerque,NM,(505) 898-1050,http://www.findalocalvet.com/Profiles/Acequia-Animal-Hospital.aspx
North Valley Regional Animal Hospital,North Phoenix,AZ,(623) 849-0700,http://www.findalocalvet.com/Profiles/North-Valley-Regional-Animal-Hospital.aspx
All Seasons Mobile Vet Clinic,Oakland,CA,(510) 430-0366,http://www.findalocalvet.com/Profiles/All-Seasons-Mobile-Vet-Clinic.aspx
Banfield the Pet Hospital,Phoenix,AZ,,http://www.findalocalvet.com/Profiles/Banfield-the-Pet-Hospital70.aspx
Palo Verde Animal Hospital,Phoenix,AZ,(602) 944-9661,http://www.findalocalvet.com/Profiles/Palo-Verde-Animal-Hospital.aspx
Edina Pet Hospital,Minneapolis,MN,(952) 929-5800,http://www.findalocalvet.com/Profiles/Edina-Pet-Hospital.aspx
Loch Haven Veterinary Hospital,Orlando,FL,(407) 896-0941,http://www.findalocalvet.com/Profiles/Loch-Haven-Veterinary-Hospital.aspx
Pet Requiem,New York,NY,(646) 599-7953,http://www.findalocalvet.com/Profiles/Pet-Requiem.aspx
Kirkman Area Animal Clinic,Orlando,FL,(407) 295-7547,http://www.findalocalvet.com/Profiles/Kirkman-Area-Animal-Clinic.aspx
City Pet Doctor,New York,NY,(917) 439-2097,http://www.findalocalvet.com/Profiles/City-Pet-Doctor.aspx
Kirkman Road Veterinary Clinic,Orlando,FL,(407) 297-7528,http://www.findalocalvet.com/Profiles/Kirkman-Road-Veterinary-Clinic.aspx
Lexington Veterinary Group,New York,NY,(212) 889-7778,http://www.findalocalvet.com/Profiles/Lexington-Veterinary-Group.aspx
Kindred Spirits Animal Clinic,Orlando,FL,(407) 855-1350,http://www.findalocalvet.com/Profiles/Kindred-Spirits-Animal-Clinic.aspx
145th St Animal Hospital,New York,NY,(212) 234-3489,http://www.findalocalvet.com/Profiles/145th-St-Animal-Hospital.aspx
West Village Veterinary Hospital,New York,NY,(212) 633-7400,http://www.findalocalvet.com/Profiles/West-Village-Veterinary-Hospital.aspx
Northwest Animal Clinic & Hospital,Albuquerque,NM,(505) 898-1491,http://www.findalocalvet.com/Profiles/Northwest-Animal-Clinic-Hospital.aspx
Vet Med Impex,New York,NY,,http://www.findalocalvet.com/Profiles/Vet-Med-Impex.aspx
Feline Health,New York  ,NY,(212) 879-0700,http://www.findalocalvet.com/Profiles/Feline-Health.aspx
Symphony Vet Center,New York,NY,(212) 866-8000,http://www.findalocalvet.com/Profiles/Symphony-Vet-Center.aspx
Heart of Chelsea Animal Hospital,New York  ,NY,(212) 924-6116,http://www.findalocalvet.com/Profiles/Heart-of-Chelsea-Animal-Hospital.aspx
Veterinary House Calls,New York,NY,(212) 838-2569,http://www.findalocalvet.com/Profiles/Veterinary-House-Calls.aspx
The Village Veterinarian,New York,NY,(212) 979-9870,http://www.findalocalvet.com/Profiles/The-Village-Veterinarian.aspx
Reade Street Animal Hospital,New York  ,NY,(212) 274-1700,http://www.findalocalvet.com/Profiles/Reade-Street-Animal-Hospital.aspx
ASPCA Bergh Meml Animal,New York,NY,,http://www.findalocalvet.com/Profiles/ASPCA-Bergh-Meml-Animal.aspx
145th Street Animal Hospital,New York,NY,,http://www.findalocalvet.com/Profiles/145th-Street-Animal-Hospital.aspx
Washington Heights Animal Hosp,New York,NY,,http://www.findalocalvet.com/Profiles/Washington-Heights-Animal-Hosp.aspx
Murray Hill Pet Hospital,New York  ,NY,(212) 685-2857,http://www.findalocalvet.com/Profiles/Murray-Hill-Pet-Hospital.aspx
Tribeca Soho Animal Hospital,New York,NY,(212) 925-6100,http://www.findalocalvet.com/Profiles/Tribeca-Soho-Animal-Hospital.aspx
East Village Veterinarian,New York,NY,,http://www.findalocalvet.com/Profiles/East-Village-Veterinarian.aspx
House Calls for Your Pet,New York,NY,(212) 465-1667,http://www.findalocalvet.com/Profiles/House-Calls-for-Your-Pet.aspx
Best Pet Rx,New York  ,NY,(800) 390-2779,http://www.findalocalvet.com/Profiles/Best-Pet-Rx.aspx
East Side Animal Hospital,New York,NY,,http://www.findalocalvet.com/Profiles/East-Side-Animal-Hospital.aspx
Animal General,New York,NY,,http://www.findalocalvet.com/Profiles/Animal-General.aspx
Pershing Oaks Animal Hospital,Orlando,FL,(407) 494-4975,http://www.findalocalvet.com/Profiles/Pershing-Oaks-Animal-Hospital.aspx
University Animal Hospital PA,Orlando,FL,(407) 657-7297,http://www.findalocalvet.com/Profiles/University-Animal-Hospital-PA.aspx
Union Park Animal Hospital,Orlando,FL,(407) 273-6010,http://www.findalocalvet.com/Profiles/Union-Park-Animal-Hospital.aspx
Worth Street Veterinary Center,New York,NY,(212) 257-6900,http://www.findalocalvet.com/Profiles/Worth-Street-Veterinary-Center.aspx
Animal Hospital at Vista Lakes,Orlando,FL,(407) 380-3011,http://www.findalocalvet.com/Profiles/Animal-Hospital-at-Vista-Lakes.aspx
Hiawassee Veterinary Clinic,Orlando,FL,(407) 299-3969,http://www.findalocalvet.com/Profiles/Hiawassee-Veterinary-Clinic.aspx
Veterinary Emergency Clinic,Orlando,FL,,http://www.findalocalvet.com/Profiles/Veterinary-Emergency-Clinic.aspx
City Veterinary Care,New York,NY,(212) 799-7000,http://www.findalocalvet.com/Profiles/City-Veterinary-Care.aspx
Pine Castle Animal Hospital,Orlando,FL,,http://www.findalocalvet.com/Profiles/Pine-Castle-Animal-Hospital.aspx
Conway Veterinary Hospital,Orlando,FL,(407) 851-4758,http://www.findalocalvet.com/Profiles/Conway-Veterinary-Hospital.aspx
St Marks Veterinary Hospital,New York,NY,,http://www.findalocalvet.com/Profiles/St-Marks-Veterinary-Hospital.aspx
Waterford Lakes Animal Hospital,Orlando,FL,(407) 382-3818,http://www.findalocalvet.com/Profiles/Waterford-Lakes-Animal-Hospital.aspx
Corrine Drive Animal Hospital,Orlando,FL,(407) 895-3774,http://www.findalocalvet.com/Profiles/Corrine-Drive-Animal-Hospital.aspx
Chickasaw Trail Animal Hosp,Orlando,FL,,http://www.findalocalvet.com/Profiles/Chickasaw-Trail-Animal-Hosp.aspx
Balboa Veterinary Hospital,San Diego,CA,(858) 279-0425,http://www.findalocalvet.com/Profiles/Balboa-Veterinary-Hospital.aspx
Rosemont Animal Clinic,Orlando,FL,,http://www.findalocalvet.com/Profiles/Rosemont-Animal-Clinic.aspx
Sunset Cliffs Animal Clinic,San Diego,CA,(619) 224-0773,http://www.findalocalvet.com/Profiles/Sunset-Cliffs-Animal-Clinic.aspx
Emergency Pet Hospital of Orlando,Orlando,FL,(407) 298-3805,http://www.findalocalvet.com/Profiles/Emergency-Pet-Hospital-of-Orlando.aspx
South Orlando Animal Hospital,Orlando,FL,(407) 855-1297,http://www.findalocalvet.com/Profiles/South-Orlando-Animal-Hospital.aspx
Carmel Valley Pet Clinic,San Diego  ,CA,(858) 259-8881,http://www.findalocalvet.com/Profiles/Carmel-Valley-Pet-Clinic.aspx
North Central Animal Hospital PC,Phoenix,AZ,(602) 395-9773,http://www.findalocalvet.com/Profiles/North-Central-Animal-Hospital-PC.aspx
Westside Veterinary Center,New York  ,NY,(212) 580-1800,http://www.findalocalvet.com/Profiles/Westside-Veterinary-Center.aspx
Desert Sage Veterinary Clinic,Phoenix,AZ,,http://www.findalocalvet.com/Profiles/Desert-Sage-Veterinary-Clinic.aspx
Banfield the Pet Hospital,Phoenix,AZ,,http://www.findalocalvet.com/Profiles/Banfield-the-Pet-Hospital69.aspx
Phoenix Dog & Cat Hospital,Phoenix,AZ,,http://www.findalocalvet.com/Profiles/Phoenix-Dog-Cat-Hospital.aspx
Eastwood Animal Hospital,Orlando,FL,(407) 447-9444,http://www.findalocalvet.com/Profiles/Eastwood-Animal-Hospital.aspx
Palm Glen Animal Hospital,Phoenix,AZ,(602) 841-1200,http://www.findalocalvet.com/Profiles/Palm-Glen-Animal-Hospital.aspx
Alta Vista Vet Hospital,Phoenix,AZ,(602) 277-1465,http://www.findalocalvet.com/Profiles/Alta-Vista-Vet-Hospital.aspx
South San Diego Vetry Hospital,San Diego,CA,(619) 423-7121,http://www.findalocalvet.com/Profiles/South-San-Diego-Vetry-Hospital.aspx
Anthem Pet Medical Ctr,Anthem,AZ,,http://www.findalocalvet.com/Profiles/Anthem-Pet-Medical-Ctr.aspx
Ingleside Animal Hospital,Phoenix,AZ,(602) 840-3446,http://www.findalocalvet.com/Profiles/Ingleside-Animal-Hospital.aspx
Union Hills Animal Hospital,Phoenix,AZ,,http://www.findalocalvet.com/Profiles/Union-Hills-Animal-Hospital.aspx
Moon Valley Animal Hospital,Phoenix,AZ,(602) 942-8850,http://www.findalocalvet.com/Profiles/Moon-Valley-Animal-Hospital.aspx
Artists for Animals,Phoenix,AZ,,http://www.findalocalvet.com/Profiles/Artists-for-Animals.aspx
Trail Animal Hospital,West Miami,FL,(305) 261-0793,http://www.findalocalvet.com/Profiles/Trail-Animal-Hospital.aspx
Vetmed Consultants,Phoenix,AZ,,http://www.findalocalvet.com/Profiles/Vetmed-Consultants.aspx
Kendall Animal Clinic,Miami,FL,(305) 274-6434,http://www.findalocalvet.com/Profiles/Kendall-Animal-Clinic.aspx
South Kendall Animal Hospital,Miami,FL,(305) 238-2030,http://www.findalocalvet.com/Profiles/South-Kendall-Animal-Hospital.aspx
Kachina Animal Hospital,Phoenix,AZ,,http://www.findalocalvet.com/Profiles/Kachina-Animal-Hospital.aspx
Orangewood Animal Hospital Pc,Phoenix,AZ,,http://www.findalocalvet.com/Profiles/Orangewood-Animal-Hospital-Pc.aspx
Animal General Hospital,Medley,FL,(305) 887-1764,http://www.findalocalvet.com/Profiles/Animal-General-Hospital3.aspx
Pet Hospital of North Park,San Diego,CA,(619) 278-0000,http://www.findalocalvet.com/Profiles/Pet-Hospital-of-North-Park.aspx
Aventura Animal Hospital,Miami,FL,(305) 933-3647,http://www.findalocalvet.com/Profiles/Aventura-Animal-Hospital.aspx
South Kendall Animal Clinic & Hospital,Miami,FL,(786) 619-1970,http://www.findalocalvet.com/Profiles/South-Kendall-Animal-Clinic-Hospital.aspx
Town & Country Animal Hospital,Albuquerque,NM,,http://www.findalocalvet.com/Profiles/Town-Country-Animal-Hospital3.aspx
Smiling Pets Mobile Vet,Miami,FL,(305) 754-0844,http://www.findalocalvet.com/Profiles/Smiling-Pets-Mobile-Vet.aspx
Montclair Veterinary Hospital,Oakland  ,CA,(510) 339-8600,http://www.findalocalvet.com/Profiles/Montclair-Veterinary-Hospital.aspx
Animal Health & Rehabilitation Center,South Miami,FL,(305) 665-3526,http://www.findalocalvet.com/Profiles/Animal-Health-Rehabilitation-Center.aspx
Cabrillo Pet Hospital,San Diego,CA,(619) 225-9684,http://www.findalocalvet.com/Profiles/Cabrillo-Pet-Hospital.aspx
Desert Hills Animal Clinic,Albuquerque,NM,,http://www.findalocalvet.com/Profiles/Desert-Hills-Animal-Clinic.aspx
Carmel Mountain Ranch Veterinary Hospital,San Diego,CA,(858) 592-9779,http://www.findalocalvet.com/Profiles/Carmel-Mountain-Ranch-Veterinary-Hospital.aspx
Mobile Veterinary Svc,Albuquerque,NM,,http://www.findalocalvet.com/Profiles/Mobile-Veterinary-Svc2.aspx
Friars Road Pet Hospital,San Diego,CA,(619) 282-7677,http://www.findalocalvet.com/Profiles/Friars-Road-Pet-Hospital.aspx
Scripps Parkway Veterinary Hospital,San Diego,CA,(858) 695-9996,http://www.findalocalvet.com/Profiles/Scripps-Parkway-Veterinary-Hospital.aspx
Penasquitos Pet Clinic,San Diego,CA,(858) 484-1260,http://www.findalocalvet.com/Profiles/Penasquitos-Pet-Clinic.aspx
Catnap RVT Relief Services,San Diego,CA,(619) 884-9601,http://www.findalocalvet.com/Profiles/Catnap-RVT-Relief-Services.aspx
Banfield the Pet Hospital,Albuquerque,NM,,http://www.findalocalvet.com/Profiles/Banfield-the-Pet-Hospital19.aspx
Coral Gables Animal Hospital,Coral Gables,FL,(305) 667-5821,http://www.findalocalvet.com/Profiles/Coral-Gables-Animal-Hospital.aspx
Old Cutler Animal Clinic,Cutler Bay,FL,(305) 251-6151,http://www.findalocalvet.com/Profiles/Old-Cutler-Animal-Clinic.aspx
Shelter Island Veterinary Hospital,San Diego  ,CA,(619) 222-0597,http://www.findalocalvet.com/Profiles/Shelter-Island-Veterinary-Hospital.aspx
Turquoise Animal Hospital,San Diego,CA,(858) 488-0658,http://www.findalocalvet.com/Profiles/Turquoise-Animal-Hospital.aspx
Penasquito Pet Clinic,San Diego,CA,(858) 484-1260,http://www.findalocalvet.com/Profiles/Penasquito-Pet-Clinic.aspx
Bayside Veterinary Hospital,San Diego,CA,(619) 225-8000,http://www.findalocalvet.com/Profiles/Bayside-Veterinary-Hospital.aspx
Southern California Veterinary,San Diego,CA,(858) 279-2108,http://www.findalocalvet.com/Profiles/Southern-California-Veterinary.aspx
Rose Canyon Animal Hospital,San Diego,CA,(858) 273-4680,http://www.findalocalvet.com/Profiles/Rose-Canyon-Animal-Hospital.aspx
Latin American Vet Med Assn,San Diego,CA,,http://www.findalocalvet.com/Profiles/Latin-American-Vet-Med-Assn.aspx
Market Street Veterinary Clinic,San Diego,CA,(619) 230-1220,http://www.findalocalvet.com/Profiles/Market-Street-Veterinary-Clinic.aspx
San Carlos Veterinary Hospital,San Diego,CA,(619) 460-3100,http://www.findalocalvet.com/Profiles/San-Carlos-Veterinary-Hospital.aspx
Kearny Mesa Veterinary Center,San Diego,CA,(858) 279-3000,http://www.findalocalvet.com/Profiles/Kearny-Mesa-Veterinary-Center.aspx
Veterinary Surgical Specialists,San Diego,CA,(858) 560-8006,http://www.findalocalvet.com/Profiles/Veterinary-Surgical-Specialists.aspx
Lifetime Animal Care Center,San Diego,CA,(858) 274-1760,http://www.findalocalvet.com/Profiles/Lifetime-Animal-Care-Center.aspx
Governor Animal Clinic,San Diego,CA,,http://www.findalocalvet.com/Profiles/Governor-Animal-Clinic.aspx
Bay Park Veterinary Clinic,San Diego,CA,(619) 276-1616,http://www.findalocalvet.com/Profiles/Bay-Park-Veterinary-Clinic.aspx
Chenoweth Animal Hospital,Louisville,KY,(502) 893-5533,http://www.findalocalvet.com/Profiles/Chenoweth-Animal-Hospital.aspx
Eye Clinic for Animals,San Diego,CA,,http://www.findalocalvet.com/Profiles/Eye-Clinic-for-Animals.aspx
Banfield the Pet Hospital,San Diego,CA,,http://www.findalocalvet.com/Profiles/Banfield-the-Pet-Hospital15.aspx
VETERINARY ASSOCIATES STONEFIELD,Louisville,KY,(502) 245-7863,http://www.findalocalvet.com/Profiles/VETERINARY-ASSOCIATES-STONEFIELD.aspx
House Calls for House Pets,St Matthews,KY,,http://www.findalocalvet.com/Profiles/House-Calls-for-House-Pets.aspx
Breckenridge Animal Hospital,Louisville,KY,,http://www.findalocalvet.com/Profiles/Breckenridge-Animal-Hospital.aspx
Seneca Animal Hospital,Louisville,KY,,http://www.findalocalvet.com/Profiles/Seneca-Animal-Hospital2.aspx
Taylorsville Road Animal Hosp,Jeffersontown,KY,,http://www.findalocalvet.com/Profiles/Taylorsville-Road-Animal-Hosp.aspx
A Animal ER Of San Diego,San Diego,CA,,http://www.findalocalvet.com/Profiles/A-Animal-ER-Of-San-Diego.aspx
Goose Creek Animal Clinic,Louisville,KY,,http://www.findalocalvet.com/Profiles/Goose-Creek-Animal-Clinic.aspx
Tatum Point Animal Hospital,Phoenix,AZ,,http://www.findalocalvet.com/Profiles/Tatum-Point-Animal-Hospital.aspx
Fegenbush Lane Animal Clinic,Louisville,KY,,http://www.findalocalvet.com/Profiles/Fegenbush-Lane-Animal-Clinic.aspx
Bell Ridge Animal Hospital,Phoenix,AZ,,http://www.findalocalvet.com/Profiles/Bell-Ridge-Animal-Hospital.aspx
Lyndon Animal Clinic,Louisville,KY,,http://www.findalocalvet.com/Profiles/Lyndon-Animal-Clinic.aspx
Jefferson Animal Hospital,Louisville,KY,,http://www.findalocalvet.com/Profiles/Jefferson-Animal-Hospital2.aspx
Cat Clinic of Louisville,Louisville,KY,,http://www.findalocalvet.com/Profiles/Cat-Clinic-of-Louisville.aspx
"Cheri's Critter Care, LLC",Louisville,KY,(502) 526-7387,http://www.findalocalvet.com/Profiles/Cheris-Critter-Care-LLC.aspx
Stonefield Veterinary Assoc,Louisville,KY,,http://www.findalocalvet.com/Profiles/Stonefield-Veterinary-Assoc.aspx
Dixie Animal Hospital,Valley Station,KY,,http://www.findalocalvet.com/Profiles/Dixie-Animal-Hospital.aspx
Davis Animal Clinic,Okolona,KY,,http://www.findalocalvet.com/Profiles/Davis-Animal-Clinic.aspx
Doerr Animal Clinic,Louisville,KY,,http://www.findalocalvet.com/Profiles/Doerr-Animal-Clinic.aspx
Iroquois Animal Clinic,Louisville,KY,,http://www.findalocalvet.com/Profiles/Iroquois-Animal-Clinic.aspx
Eastpoint Veterinary Clinic,Louisville,KY,(502) 253-1151,http://www.findalocalvet.com/Profiles/Eastpoint-Veterinary-Clinic.aspx
KIH Vet Ctr,Louisville,KY,,http://www.findalocalvet.com/Profiles/KIH-Vet-Ctr.aspx
Fairleigh Pet Center,Louisville,KY,(502) 451-6655,http://www.findalocalvet.com/Profiles/Fairleigh-Pet-Center.aspx
Auburndale Animal Hospital,Louisville,KY,,http://www.findalocalvet.com/Profiles/Auburndale-Animal-Hospital.aspx
Anchorage Animal Hospital,Louisville,KY,,http://www.findalocalvet.com/Profiles/Anchorage-Animal-Hospital.aspx
Utopia Animal Hospital,Memphis,TN,(901) 746-8758,http://www.findalocalvet.com/Profiles/Utopia-Animal-Hospital.aspx
Animal Emergency Ctr,Louisville,KY,,http://www.findalocalvet.com/Profiles/Animal-Emergency-Ctr.aspx
Petvax Complete Care Ctr,Bartlett,TN,,http://www.findalocalvet.com/Profiles/Petvax-Complete-Care-Ctr.aspx
Raines Road Animal Hospital,Memphis,TN,(901) 396-7641,http://www.findalocalvet.com/Profiles/Raines-Road-Animal-Hospital.aspx
Animal Emergency Ctr Pc,Memphis,TN,,http://www.findalocalvet.com/Profiles/Animal-Emergency-Ctr-Pc.aspx
Pet Care Professionals,Memphis,TN,(901) 324-0202,http://www.findalocalvet.com/Profiles/Pet-Care-Professionals.aspx
Germanwood Animal Hospital,Memphis,TN,,http://www.findalocalvet.com/Profiles/Germanwood-Animal-Hospital.aspx
Angel Care Cancer Clinic-Anmls,Bartlett,TN,,http://www.findalocalvet.com/Profiles/Angel-Care-Cancer-Clinic-Anmls.aspx
Memphis Animal Clinic,Memphis,TN,(901) 272-7411,http://www.findalocalvet.com/Profiles/Memphis-Animal-Clinic.aspx
Avian & Exotic Medical Prctce,Memphis,TN,,http://www.findalocalvet.com/Profiles/Avian-Exotic-Medical-Prctce.aspx
Parkway Village Companion Animal Hospital,Memphis,TN,(901) 363-4077,http://www.findalocalvet.com/Profiles/Parkway-Village-Companion-Animal-Hospital.aspx
Southwind Animal Hospital,Memphis,TN,,http://www.findalocalvet.com/Profiles/Southwind-Animal-Hospital.aspx
Noah's Ark,Memphis,TN,,http://www.findalocalvet.com/Profiles/Noahs-Ark.aspx
Stony Brook Animal Hospital,Louisville,KY,,http://www.findalocalvet.com/Profiles/Stony-Brook-Animal-Hospital.aspx
Mobilevet Memphis,Memphis,TN,(901) 569-3683,http://www.findalocalvet.com/Profiles/Mobilevet-Memphis.aspx
Brooks Road Animal Hospital,Memphis,TN,(901) 332-4550,http://www.findalocalvet.com/Profiles/Brooks-Road-Animal-Hospital.aspx
Boulevard Animal Clinic,San Diego,CA,,http://www.findalocalvet.com/Profiles/Boulevard-Animal-Clinic.aspx
Western Veterinarian,Memphis,TN,,http://www.findalocalvet.com/Profiles/Western-Veterinarian.aspx
Family Veterinary Practice,Bartlett,TN,,http://www.findalocalvet.com/Profiles/Family-Veterinary-Practice2.aspx
Downtown Animal Hospital,Memphis,TN,,http://www.findalocalvet.com/Profiles/Downtown-Animal-Hospital.aspx
Belle Meade Animal Hospital,Nashville,TN,,http://www.findalocalvet.com/Profiles/Belle-Meade-Animal-Hospital.aspx
Animal Allergy & Dermatology,Nashville,TN,,http://www.findalocalvet.com/Profiles/Animal-Allergy-Dermatology2.aspx
Bellevue Animal Hospital,Nashville,TN,,http://www.findalocalvet.com/Profiles/Bellevue-Animal-Hospital.aspx
Tri City East Veterinary Hospital,Mesa,AZ,(480) 830-2873,http://www.findalocalvet.com/Profiles/Tri-City-East-Veterinary-Hospital.aspx
Noe's Ark Animal Clinic,Mesa,AZ,,http://www.findalocalvet.com/Profiles/Noes-Ark-Animal-Clinic.aspx
Family Vet Care of Mesa,Mesa,AZ,,http://www.findalocalvet.com/Profiles/Family-Vet-Care-of-Mesa.aspx
"Murphy Road Animal Hospital, P.C.",Nashville,TN,(615) 383-4241,http://www.findalocalvet.com/Profiles/Murphy-Road-Animal-Hospital-P-C-.aspx
1st Emergency Pet Care,Mesa,AZ,(480) 924-1123,http://www.findalocalvet.com/Profiles/1st-Emergency-Pet-Care.aspx
Comet Veterinary Hospital,Mesa,AZ,(480) 779-9976,http://www.findalocalvet.com/Profiles/Comet-Veterinary-Hospital.aspx
Parkway Village Companion Anml,Memphis,TN,,http://www.findalocalvet.com/Profiles/Parkway-Village-Companion-Anml.aspx
Chestnut Hill Cat Clinic,Philadelphia,PA,(215) 247-9560,http://www.findalocalvet.com/Profiles/Chestnut-Hill-Cat-Clinic.aspx
Society Hill Veterinary Hospital,Phila,PA,(215) 627-5955,http://www.findalocalvet.com/Profiles/Society-Hill-Veterinary-Hospital.aspx
Bark Avenue Animal Hospital,Mesa,AZ,(480) 807-5524,http://www.findalocalvet.com/Profiles/Bark-Avenue-Animal-Hospital.aspx
Yale Road Animal Hospital,Memphis,TN,,http://www.findalocalvet.com/Profiles/Yale-Road-Animal-Hospital.aspx
Main Street Animal Clinic,Philadelphia,PA,,http://www.findalocalvet.com/Profiles/Main-Street-Animal-Clinic.aspx
Compassion Veterinary Clinic,Philadelphia,PA,(888) 593-2191,http://www.findalocalvet.com/Profiles/Compassion-Veterinary-Clinic.aspx
Eastside Animal Hospital,Mesa,AZ,,http://www.findalocalvet.com/Profiles/Eastside-Animal-Hospital.aspx
Banfield the Pet Hospital,Miami,FL,,http://www.findalocalvet.com/Profiles/Banfield-the-Pet-Hospital49.aspx
Donelson Animal Hospital,Nashville,TN,,http://www.findalocalvet.com/Profiles/Donelson-Animal-Hospital.aspx
Arizona Exotic Animal Hospital,Mesa,AZ,(866) 989-5890,http://www.findalocalvet.com/Profiles/Arizona-Exotic-Animal-Hospital.aspx
Katarina Boros DVM,North Miami,FL,,http://www.findalocalvet.com/Profiles/Katarina-Boros-DVM.aspx
Pet Emergency Room,South Miami,FL,(305) 666-4142,http://www.findalocalvet.com/Profiles/Pet-Emergency-Room.aspx
Paradise Animal Center,Miami,FL,(305) 387-0841,http://www.findalocalvet.com/Profiles/Paradise-Animal-Center.aspx
Country Walk Veterinary Ctr,Miami,FL,,http://www.findalocalvet.com/Profiles/Country-Walk-Veterinary-Ctr.aspx
Aec Animal Emergency Clinic,Miami,FL,(305) 251-2096,http://www.findalocalvet.com/Profiles/Aec-Animal-Emergency-Clinic.aspx
Silver BLUFF Animal Clinic,Miami,FL,(305) 859-7979,http://www.findalocalvet.com/Profiles/Silver-BLUFF-Animal-Clinic.aspx
Tropical Park Animal Hospital,Miami,FL,,http://www.findalocalvet.com/Profiles/Tropical-Park-Animal-Hospital.aspx
Sky Lake Animal Hospital,Miami,FL,(305) 931-2113,http://www.findalocalvet.com/Profiles/Sky-Lake-Animal-Hospital.aspx
Arch Creek Animal Clinic,North Miami,FL,,http://www.findalocalvet.com/Profiles/Arch-Creek-Animal-Clinic.aspx
Vet Home Express,Aventura,FL,(954) 243-0269,http://www.findalocalvet.com/Profiles/Vet-Home-Express.aspx
Pinecrest Veterinary Hospital,Pinecrest,FL,(305) 278-1300,http://www.findalocalvet.com/Profiles/Pinecrest-Veterinary-Hospital.aspx
Siegel TLC Animal Clinic,North Miami,FL,(305) 891-5116,http://www.findalocalvet.com/Profiles/Siegel-TLC-Animal-Clinic.aspx
Dream Lake Animal Hospital,Miami,FL,(305) 225-3116,http://www.findalocalvet.com/Profiles/Dream-Lake-Animal-Hospital.aspx
Pet Care Clinic of Doral,Doral,FL,(305) 477-7387,http://www.findalocalvet.com/Profiles/Pet-Care-Clinic-of-Doral.aspx
Miami Animal Hospital,Miami,FL,(305) 443-4777,http://www.findalocalvet.com/Profiles/Miami-Animal-Hospital.aspx
Miami Veterinary Internists,South Miami,FL,,http://www.findalocalvet.com/Profiles/Miami-Veterinary-Internists.aspx
Miami Veterinary Specialists,Miami,FL,,http://www.findalocalvet.com/Profiles/Miami-Veterinary-Specialists.aspx
Doral Center Animal Clinic of Miami,Doral,FL,(305) 598-1234,http://www.findalocalvet.com/Profiles/Doral-Center-Animal-Clinic-of-Miami.aspx
Brickell Animal Hospital,Miami,FL,(305) 933-5581,http://www.findalocalvet.com/Profiles/Brickell-Animal-Hospital.aspx
Avian & Exotic Animal Medical Center,Miami,FL,(305) 234-2473,http://www.findalocalvet.com/Profiles/Avian-Exotic-Animal-Medical-Center.aspx
Eureka Animal Clinic,Miami,FL,(305) 253-6754,http://www.findalocalvet.com/Profiles/Eureka-Animal-Clinic.aspx
Coconut Grove Animal Clinic,Miami,FL,(305) 448-2123,http://www.findalocalvet.com/Profiles/Coconut-Grove-Animal-Clinic.aspx
Banfield the Pet Hospital,Miami,FL,,http://www.findalocalvet.com/Profiles/Banfield-the-Pet-Hospital50.aspx
Animal Care Hospital,Milwaukee,WI,,http://www.findalocalvet.com/Profiles/Animal-Care-Hospital.aspx
South Miami Animal Clinic,South Miami,FL,(305) 667-7238,http://www.findalocalvet.com/Profiles/South-Miami-Animal-Clinic.aspx
Pahle Small Animal Clinic,Milwaukee,WI,,http://www.findalocalvet.com/Profiles/Pahle-Small-Animal-Clinic.aspx
Advanced Animal Hospital,Greenfield,WI,(414) 817-1200,http://www.findalocalvet.com/Profiles/Advanced-Animal-Hospital2.aspx
Hefner Road Animal Hospital,Oklahoma City,OK,(405) 773-5557,http://www.findalocalvet.com/Profiles/Hefner-Road-Animal-Hospital.aspx
Crestwood Animal Hospital,Oklahoma City,OK,,http://www.findalocalvet.com/Profiles/Crestwood-Animal-Hospital.aspx
Heritage Plaza Animal Hospital,Oklahoma City,OK,(405) 737-4000,http://www.findalocalvet.com/Profiles/Heritage-Plaza-Animal-Hospital.aspx
Mac Arthur Boulevard Animal,Oklahoma City,OK,,http://www.findalocalvet.com/Profiles/Mac-Arthur-Boulevard-Animal.aspx
Veterinary Home Healthcare,Oklahoma City,OK,(405) 820-6647,http://www.findalocalvet.com/Profiles/Veterinary-Home-Healthcare.aspx
Nichles Hills,Oklahoma City,OK,,http://www.findalocalvet.com/Profiles/Nichles-Hills.aspx
Banfield the Pet Hospital,Oklahoma City,OK,,http://www.findalocalvet.com/Profiles/Banfield-the-Pet-Hospital67.aspx
Britton Road Veterinary Clinic,Oklahoma City,OK,(405) 751-8007,http://www.findalocalvet.com/Profiles/Britton-Road-Veterinary-Clinic.aspx
Summit Pointe Vet Clinic,Oklahoma City,OK,,http://www.findalocalvet.com/Profiles/Summit-Pointe-Vet-Clinic.aspx
North Penn Pet Supply-Grooming,Oklahoma City,OK,,http://www.findalocalvet.com/Profiles/North-Penn-Pet-Supply-Grooming.aspx
Country Pet Care,Oklahoma City,OK,(405) 478-8800,http://www.findalocalvet.com/Profiles/Country-Pet-Care.aspx
West Allis Veterinary Clinic,Milwaukee,WI,(414) 453-4344,http://www.findalocalvet.com/Profiles/West-Allis-Veterinary-Clinic.aspx
Banfield the Pet Hospital,Oklahoma City,OK,,http://www.findalocalvet.com/Profiles/Banfield-the-Pet-Hospital68.aspx
Ranchwood Veterinary Hospital,Oklahoma City,OK,(405) 794-5551,http://www.findalocalvet.com/Profiles/Ranchwood-Veterinary-Hospital.aspx
Greenbriar Veterinary Hospital,Oklahoma City,OK,,http://www.findalocalvet.com/Profiles/Greenbriar-Veterinary-Hospital.aspx
Quail Creek Veterinary Clinic,Oklahoma City,OK,,http://www.findalocalvet.com/Profiles/Quail-Creek-Veterinary-Clinic.aspx
Oklahoma City Equine Clinic,Oklahoma City,OK,,http://www.findalocalvet.com/Profiles/Oklahoma-City-Equine-Clinic.aspx
Happy Tails Mobile Vet Clinic,Oklahoma City,OK,,http://www.findalocalvet.com/Profiles/Happy-Tails-Mobile-Vet-Clinic.aspx
Warwick Animal Hospital,Oklahoma City,OK,(405) 722-7717,http://www.findalocalvet.com/Profiles/Warwick-Animal-Hospital.aspx
Safe Haven Clinic & Pet Lodge,Oklahoma City,OK,,http://www.findalocalvet.com/Profiles/Safe-Haven-Clinic-Pet-Lodge.aspx
Family Animal Hospital,Fridley,MN,(763) 574-0262,http://www.findalocalvet.com/Profiles/Family-Animal-Hospital.aspx
Pet Crossing Animal Hospital,Minneapolis,MN,(952) 884-8248,http://www.findalocalvet.com/Profiles/Pet-Crossing-Animal-Hospital.aspx
Lyndale Animal Hospital,Minneapolis,MN,(612) 872-4674,http://www.findalocalvet.com/Profiles/Lyndale-Animal-Hospital.aspx
Post Road Pet Clinic,Oklahoma City,OK,,http://www.findalocalvet.com/Profiles/Post-Road-Pet-Clinic.aspx
Amber Oaks Veterinary Hospital,Midwest City,OK,,http://www.findalocalvet.com/Profiles/Amber-Oaks-Veterinary-Hospital.aspx
Compassionate Care Animal Hospital,Minneapolis,MN,(763) 315-4200,http://www.findalocalvet.com/Profiles/Compassionate-Care-Animal-Hospital.aspx
Banfield the Pet Hospital,Minneapolis,MN,,http://www.findalocalvet.com/Profiles/Banfield-the-Pet-Hospital21.aspx
Coon Rapids Pet Hospital PA,Coon Rapids,MN,,http://www.findalocalvet.com/Profiles/Coon-Rapids-Pet-Hospital-PA.aspx
Cats Preferred Veterinary Hosp,Plymouth,MN,,http://www.findalocalvet.com/Profiles/Cats-Preferred-Veterinary-Hosp.aspx
Companion Veterinary Hospital,Blaine,MN,,http://www.findalocalvet.com/Profiles/Companion-Veterinary-Hospital.aspx
Pandora's Box Veterinary Clnc,Minneapolis,MN,,http://www.findalocalvet.com/Profiles/Pandoras-Box-Veterinary-Clnc.aspx
Banfield the Pet Hospital,Richfield,MN,,http://www.findalocalvet.com/Profiles/Banfield-the-Pet-Hospital62.aspx
Rockford Road Animal Hospital,Minneapolis,MN,(763) 559-8903,http://www.findalocalvet.com/Profiles/Rockford-Road-Animal-Hospital.aspx
Southwestern Pet Clinic,Oklahoma City,OK,,http://www.findalocalvet.com/Profiles/Southwestern-Pet-Clinic.aspx
Brooklyn Pet Hospital,Minneapolis,MN,,http://www.findalocalvet.com/Profiles/Brooklyn-Pet-Hospital.aspx
Golden Valley Animal Hospital,Golden Valley,MN,(763) 546-2323,http://www.findalocalvet.com/Profiles/Golden-Valley-Animal-Hospital.aspx
Brookview Animal Hospital PA,Minneapolis,MN,,http://www.findalocalvet.com/Profiles/Brookview-Animal-Hospital-PA.aspx
Companion Animal Eye Ctr,Minneapolis,MN,,http://www.findalocalvet.com/Profiles/Companion-Animal-Eye-Ctr.aspx
Best Friends Animal Hospital,Minneapolis,MN,,http://www.findalocalvet.com/Profiles/Best-Friends-Animal-Hospital.aspx
Nokomis Pet Clinic,Minneapolis,MN,(612) 767-4546,http://www.findalocalvet.com/Profiles/Nokomis-Pet-Clinic.aspx
Diamond Lake Animal Hospital,Minneapolis,MN,,http://www.findalocalvet.com/Profiles/Diamond-Lake-Animal-Hospital.aspx
Blaine Area Pet Hospital Pa,Blaine,MN,(763) 392-4899,http://www.findalocalvet.com/Profiles/Blaine-Area-Pet-Hospital-Pa.aspx
Brookdale Animal Hospital PA,Minneapolis,MN,(763) 560-6906,http://www.findalocalvet.com/Profiles/Brookdale-Animal-Hospital-PA.aspx
Oak Knoll Animal Hospital,St Louis Park,MN,,http://www.findalocalvet.com/Profiles/Oak-Knoll-Animal-Hospital.aspx
Banfield the Pet Hospital,Minneapolis,MN,,http://www.findalocalvet.com/Profiles/Banfield-the-Pet-Hospital22.aspx
Carrollton Veterinary Hospital,New Orleans,LA,,http://www.findalocalvet.com/Profiles/Carrollton-Veterinary-Hospital.aspx
Lakeview Veterinary Hospital,New Orleans,LA,(504) 482-2173,http://www.findalocalvet.com/Profiles/Lakeview-Veterinary-Hospital.aspx
Normandale Veterinary Hospital,Minneapolis,MN,,http://www.findalocalvet.com/Profiles/Normandale-Veterinary-Hospital.aspx
Magazine Street Animal Clinic,New Orleans,LA,,http://www.findalocalvet.com/Profiles/Magazine-Street-Animal-Clinic.aspx
Barca & Assoc,New Orleans,LA,,http://www.findalocalvet.com/Profiles/Barca-Assoc.aspx
Prytania Veterinary Hospital,New Orleans,LA,(504) 899-2828,http://www.findalocalvet.com/Profiles/Prytania-Veterinary-Hospital.aspx
Canal Street Veterinary Hospital,New Orleans,LA,(504) 200-2784,http://www.findalocalvet.com/Profiles/Canal-Street-Veterinary-Hospital.aspx
Garden District Pet Hospital,New Orleans,LA,(504) 891-8618,http://www.findalocalvet.com/Profiles/Garden-District-Pet-Hospital.aspx
Harvey Oaks Animal Hospital,Omaha,NE,(402) 334-0200,http://www.findalocalvet.com/Profiles/Harvey-Oaks-Animal-Hospital.aspx
Audubon Veterinary Hospital,New Orleans,LA,,http://www.findalocalvet.com/Profiles/Audubon-Veterinary-Hospital.aspx
Community Animal Hospital,Omaha,NE,,http://www.findalocalvet.com/Profiles/Community-Animal-Hospital3.aspx
Eye Center for Animals Inc,New Orleans,LA,,http://www.findalocalvet.com/Profiles/Eye-Center-for-Animals-Inc.aspx
Belle Mead Animal Hospital,Omaha,NE,(402) 972-8603,http://www.findalocalvet.com/Profiles/Belle-Mead-Animal-Hospital.aspx
Ralston Veterinary Clinic Incorporated,Ralston,NE,(402) 331-6322,http://www.findalocalvet.com/Profiles/Ralston-Veterinary-Clinic-Incorporated.aspx
Banfield the Pet Hospital,Omaha,NE,,http://www.findalocalvet.com/Profiles/Banfield-the-Pet-Hospital64.aspx
Millard Veterinary Clinic,Omaha,NE,,http://www.findalocalvet.com/Profiles/Millard-Veterinary-Clinic.aspx
Hickory Knoll Veterinary Hosp,Harahan,LA,,http://www.findalocalvet.com/Profiles/Hickory-Knoll-Veterinary-Hosp.aspx
Miracle Hills Animal Hospital,Omaha,NE,,http://www.findalocalvet.com/Profiles/Miracle-Hills-Animal-Hospital.aspx
Animal Clinic Suburban,Omaha,NE,,http://www.findalocalvet.com/Profiles/Animal-Clinic-Suburban.aspx
Benson Animal Clinic,Omaha,NE,,http://www.findalocalvet.com/Profiles/Benson-Animal-Clinic.aspx
Jernigan N B DVM,Omaha,NE,,http://www.findalocalvet.com/Profiles/Jernigan-N-B-DVM.aspx
Midwestvet,Omaha,NE,,http://www.findalocalvet.com/Profiles/Midwestvet.aspx
Nichols Hills Veterinary Clnc,Oklahoma City,OK,,http://www.findalocalvet.com/Profiles/Nichols-Hills-Veterinary-Clnc.aspx
NE Equine Veterinary Clinic,Omaha,NE,,http://www.findalocalvet.com/Profiles/NE-Equine-Veterinary-Clinic.aspx
Rockbrook Animal Clinic,Omaha,NE,,http://www.findalocalvet.com/Profiles/Rockbrook-Animal-Clinic.aspx
24th Street Animal Clinic,Omaha,NE,,http://www.findalocalvet.com/Profiles/24th-Street-Animal-Clinic.aspx
Best Care Pet Hospital,Omaha,NE,,http://www.findalocalvet.com/Profiles/Best-Care-Pet-Hospital.aspx
Fort Street Veterinarian,Omaha,NE,,http://www.findalocalvet.com/Profiles/Fort-Street-Veterinarian.aspx
Goodrich Veterinary Clinic,Omaha,NE,,http://www.findalocalvet.com/Profiles/Goodrich-Veterinary-Clinic.aspx
Awesome Care Veterinary,Oklahoma City,OK,(405) 631-0569,http://www.findalocalvet.com/Profiles/Awesome-Care-Veterinary.aspx
Backlund Animal Clinic,Omaha,NE,(402) 334-1580,http://www.findalocalvet.com/Profiles/Backlund-Animal-Clinic2.aspx
Southwest Animal Hospital Pc,Omaha,NE,,http://www.findalocalvet.com/Profiles/Southwest-Animal-Hospital-Pc.aspx
American Animal Hospital,Omaha,NE,,http://www.findalocalvet.com/Profiles/American-Animal-Hospital.aspx
Albuquerque Equine Clinic,Albuquerque,NM,,http://www.findalocalvet.com/Profiles/Albuquerque-Equine-Clinic.aspx
Animal Spay-Neuter Clinic,Omaha,NE,,http://www.findalocalvet.com/Profiles/Animal-Spay-Neuter-Clinic.aspx
Ponderosa Animal Clinic,Albuquerque,NM,,http://www.findalocalvet.com/Profiles/Ponderosa-Animal-Clinic.aspx
Kenwood Pet Clinic,Minneapolis,MN,(612) 377-5551,http://www.findalocalvet.com/Profiles/Kenwood-Pet-Clinic.aspx
Omaha Animal Hospital PC,Omaha,NE,,http://www.findalocalvet.com/Profiles/Omaha-Animal-Hospital-PC.aspx
VCA Veterinary Care Animal,Albuquerque,NM,,http://www.findalocalvet.com/Profiles/VCA-Veterinary-Care-Animal.aspx
Todd Webster DVM,Albuquerque,NM,,http://www.findalocalvet.com/Profiles/Todd-Webster-DVM.aspx
Eubank Animal Clinic,Albuquerque,NM,,http://www.findalocalvet.com/Profiles/Eubank-Animal-Clinic.aspx
Good Shepherd Animal Clinic,Albuquerque,NM,,http://www.findalocalvet.com/Profiles/Good-Shepherd-Animal-Clinic.aspx
Backlund Animal Clinic,Omaha,NE,,http://www.findalocalvet.com/Profiles/Backlund-Animal-Clinic.aspx
ABQ Pet Vets,Albuquerque,NM,,http://www.findalocalvet.com/Profiles/ABQ-Pet-Vets.aspx
Vet-Co,Albuquerque,NM,,http://www.findalocalvet.com/Profiles/Vet-Co.aspx
Dermatology Clinic for Animals,Albuquerque,NM,,http://www.findalocalvet.com/Profiles/Dermatology-Clinic-for-Animals.aspx
Petroglyph Animal Hospital,Albuquerque,NM,,http://www.findalocalvet.com/Profiles/Petroglyph-Animal-Hospital.aspx
Banfield the Pet Hospital,Omaha,NE,,http://www.findalocalvet.com/Profiles/Banfield-the-Pet-Hospital65.aspx
Albuquerque Cat Clinic,Albuquerque,NM,,http://www.findalocalvet.com/Profiles/Albuquerque-Cat-Clinic.aspx
Animal Humane New Mexico Clnc,Albuquerque,NM,,http://www.findalocalvet.com/Profiles/Animal-Humane-New-Mexico-Clnc.aspx
Valley Vet-Co,Albuquerque,NM,,http://www.findalocalvet.com/Profiles/Valley-Vet-Co.aspx
Banfield the Pet Hospital,Albuquerque,NM,,http://www.findalocalvet.com/Profiles/Banfield-the-Pet-Hospital18.aspx
Uptown Cat Hospital,Albuquerque,NM,,http://www.findalocalvet.com/Profiles/Uptown-Cat-Hospital.aspx
Large Animal Clinic,Albuquerque,NM,,http://www.findalocalvet.com/Profiles/Large-Animal-Clinic.aspx
Albuquerque Animal Emergency,Albuquerque,NM,,http://www.findalocalvet.com/Profiles/Albuquerque-Animal-Emergency.aspx
St Francis Animal Clinic,Albuquerque,NM,,http://www.findalocalvet.com/Profiles/St-Francis-Animal-Clinic.aspx
Rio Grande Animal Clinic,Albuquerque,NM,,http://www.findalocalvet.com/Profiles/Rio-Grande-Animal-Clinic.aspx
Large Animal Internal Medicine,Albuquerque,NM,,http://www.findalocalvet.com/Profiles/Large-Animal-Internal-Medicine.aspx
Blackshear Veterinary Housecalls,Albuquerque,NM,(505) 300-4459,http://www.findalocalvet.com/Profiles/Blackshear-Veterinary-Housecalls.aspx
Cole & Elliott,Albuquerque,NM,,http://www.findalocalvet.com/Profiles/Cole-Elliott.aspx
Abide Mobile Dog & Cat Clinic,Albuquerque,NM,,http://www.findalocalvet.com/Profiles/Abide-Mobile-Dog-Cat-Clinic.aspx
Bolton Animal Hospital,Albuquerque,NM,,http://www.findalocalvet.com/Profiles/Bolton-Animal-Hospital.aspx
Hampton Animal Hospital,St Louis,MO,,http://www.findalocalvet.com/Profiles/Hampton-Animal-Hospital2.aspx
Halsey East Animal Clinic,Portland,OR,(503) 255-0261,http://www.findalocalvet.com/Profiles/Halsey-East-Animal-Clinic.aspx
Melrose La Brea Animal Hospital,Los Angeles,CA,(323) 937-5120,http://www.findalocalvet.com/Profiles/Melrose-La-Brea-Animal-Hospital.aspx
Far Vet Supply,St Paul,MN,,http://www.findalocalvet.com/Profiles/Far-Vet-Supply.aspx
Sahara Animal Hospital,Las Vegas,NV,,http://www.findalocalvet.com/Profiles/Sahara-Animal-Hospital.aspx
Arden Animal Hospital,Sacramento,CA,(916) 485-5412,http://www.findalocalvet.com/Profiles/Arden-Animal-Hospital.aspx
Sorrento Animal Hospital,Tigard,OR,(503) 524-5029,http://www.findalocalvet.com/Profiles/Sorrento-Animal-Hospital.aspx
Sunset Boulevard Animal Clinic,Houston,TX,(713) 526-5881,http://www.findalocalvet.com/Profiles/Sunset-Boulevard-Animal-Clinic.aspx
Memorial 610 Hospital-Animals,Houston,TX,,http://www.findalocalvet.com/Profiles/Memorial-610-Hospital-Animals.aspx
Dermatology Clinic for Animals,Salt Lake City,UT,,http://www.findalocalvet.com/Profiles/Dermatology-Clinic-for-Animals2.aspx
Heritage Veterinary Hospital,St Louis,MO,(314) 878-8454,http://www.findalocalvet.com/Profiles/Heritage-Veterinary-Hospital.aspx
Banfield the Pet Hospital,Salt Lake City,UT,,http://www.findalocalvet.com/Profiles/Banfield-the-Pet-Hospital71.aspx
PEACEFUL PASSING,Raleigh,NC,(919) 672-0686,http://www.findalocalvet.com/Profiles/PEACEFUL-PASSING.aspx
After Hours Small Animal Emergency Clinic,Raleigh,NC,(919) 781-5145,http://www.findalocalvet.com/Profiles/After-Hours-Small-Animal-Emergency-Clinic.aspx
Gladstone Animal Clinic,Kansas City,MO,(816) 436-1100,http://www.findalocalvet.com/Profiles/Gladstone-Animal-Clinic.aspx
North Figueroa Animal Hospital,Los Angeles,CA,(323) 258-8068,http://www.findalocalvet.com/Profiles/North-Figueroa-Animal-Hospital.aspx
Alamo Heights Pet Clinic,San Antonio,TX,(210) 821-5544,http://www.findalocalvet.com/Profiles/Alamo-Heights-Pet-Clinic.aspx
Shoal Creek Animal Hospital,Kansas City,MO,(816) 476-4046,http://www.findalocalvet.com/Profiles/Shoal-Creek-Animal-Hospital.aspx
Ingram Park Animal Hospital,San Antonio,TX,(210) 680-1800,http://www.findalocalvet.com/Profiles/Ingram-Park-Animal-Hospital.aspx
Animal Clinic of Newmark,Kansas City,MO,(816) 734-0700,http://www.findalocalvet.com/Profiles/Animal-Clinic-of-Newmark.aspx
Hillsdale Veterinary Group,Portland,OR,(503) 246-4660,http://www.findalocalvet.com/Profiles/Hillsdale-Veterinary-Group.aspx
Ten West Bird & Animal Hospital,San Antonio,TX,(210) 696-1700,http://www.findalocalvet.com/Profiles/Ten-West-Bird-Animal-Hospital.aspx
Dodd Animal Hospital,San Antonio,TX,(210) 333-5753,http://www.findalocalvet.com/Profiles/Dodd-Animal-Hospital.aspx
Smith & Shedd Family Pet Hospital,San Antonio,TX,(210) 579-0518,http://www.findalocalvet.com/Profiles/Smith-Shedd-Family-Pet-Hospital.aspx
Dancing Cats Feline Health Ctr,Salt Lake City,UT,,http://www.findalocalvet.com/Profiles/Dancing-Cats-Feline-Health-Ctr.aspx
Town and Country Veterinary Hospital,San Antonio,TX,(210) 684-1448,http://www.findalocalvet.com/Profiles/Town-and-Country-Veterinary-Hospital.aspx
South Texas Veterinary Specialist,San Antonio,TX,(210) 930-8383,http://www.findalocalvet.com/Profiles/South-Texas-Veterinary-Specialist.aspx
Centennial Hills Animal Hospital,Las Vegas,NV,(702) 655-0241,http://www.findalocalvet.com/Profiles/Centennial-Hills-Animal-Hospital.aspx
Broadway Oaks Animal Hospital,San Antonio,TX,(210) 824-7481,http://www.findalocalvet.com/Profiles/Broadway-Oaks-Animal-Hospital.aspx
Mountain Vista Animal Hospital,Las Vegas,NV,,http://www.findalocalvet.com/Profiles/Mountain-Vista-Animal-Hospital.aspx
Northeast Animal Hospital,Las Vegas,NV,,http://www.findalocalvet.com/Profiles/Northeast-Animal-Hospital.aspx
Pet Medical Ctr of San Antonio,San Antonio,TX,(210) 681-8333,http://www.findalocalvet.com/Profiles/Pet-Medical-Ctr-of-San-Antonio.aspx
Lake Mead Animal Hospital,Las Vegas,NV,,http://www.findalocalvet.com/Profiles/Lake-Mead-Animal-Hospital.aspx
West Flamingo Animal Hospital,Las Vegas,NV,(702) 876-2111,http://www.findalocalvet.com/Profiles/West-Flamingo-Animal-Hospital.aspx
Affordable Pet Care,San Antonio,TX,(210) 684-2273,http://www.findalocalvet.com/Profiles/Affordable-Pet-Care.aspx
Pecos-Russell Animal Hospital,Las Vegas,NV,,http://www.findalocalvet.com/Profiles/Pecos-Russell-Animal-Hospital.aspx
South Valley Animal Hospital,Las Vegas,NV,,http://www.findalocalvet.com/Profiles/South-Valley-Animal-Hospital.aspx
Aloha Animal Hospital Incorporated,Las Vegas,NV,(702) 567-5222,http://www.findalocalvet.com/Profiles/Aloha-Animal-Hospital-Incorporated.aspx
Sunset Eastern Animal Hospital,Las Vegas,NV,(702) 361-2566,http://www.findalocalvet.com/Profiles/Sunset-Eastern-Animal-Hospital.aspx
Grand Montecito Animal Hospital,Las Vegas,NV,(702) 656-1115,http://www.findalocalvet.com/Profiles/Grand-Montecito-Animal-Hospital.aspx
Aloha Animal Hospital Inc,Las Vegas,NV,,http://www.findalocalvet.com/Profiles/Aloha-Animal-Hospital-Inc.aspx
Pet Medical Center,Las Vegas,NV,(702) 228-4000,http://www.findalocalvet.com/Profiles/Pet-Medical-Center2.aspx
Dewey Veterinary Medical Center,Las Vegas,NV,(702) 997-8091,http://www.findalocalvet.com/Profiles/Dewey-Veterinary-Medical-Center.aspx
Western Veterinary Conference,Las Vegas,NV,,http://www.findalocalvet.com/Profiles/Western-Veterinary-Conference.aspx
Haven Animal Hospital,Las Vegas,NV,,http://www.findalocalvet.com/Profiles/Haven-Animal-Hospital.aspx
Northwest Veterinary Hospital,Las Vegas,NV,,http://www.findalocalvet.com/Profiles/Northwest-Veterinary-Hospital2.aspx
Compassionate Care,San Antonio,TX,(210) 641-4447,http://www.findalocalvet.com/Profiles/Compassionate-Care.aspx
Banfield the Pet Hospital,Las Vegas,NV,,http://www.findalocalvet.com/Profiles/Banfield-the-Pet-Hospital17.aspx
Summerlin Animal Hospital,Las Vegas,NV,,http://www.findalocalvet.com/Profiles/Summerlin-Animal-Hospital.aspx
Lone Mountain Animal Hospital,Las Vegas,NV,,http://www.findalocalvet.com/Profiles/Lone-Mountain-Animal-Hospital.aspx
Miguel Dmv Svc,Las Vegas,NV,,http://www.findalocalvet.com/Profiles/Miguel-Dmv-Svc.aspx
Animal Cancer Care Specialist,Las Vegas,NV,,http://www.findalocalvet.com/Profiles/Animal-Cancer-Care-Specialist.aspx
J Y L Rubin DVM,Las Vegas,NV,,http://www.findalocalvet.com/Profiles/J-Y-L-Rubin-DVM.aspx
All About Cats Veterinary Hosp,Las Vegas,NV,,http://www.findalocalvet.com/Profiles/All-About-Cats-Veterinary-Hosp.aspx
Sahara-Pines Animal Hospital,Las Vegas,NV,,http://www.findalocalvet.com/Profiles/Sahara-Pines-Animal-Hospital.aspx
Desert Pines Equine Ctr,Las Vegas,NV,,http://www.findalocalvet.com/Profiles/Desert-Pines-Equine-Ctr.aspx
VCA Hualapai Animal Hospital,Las Vegas,NV,,http://www.findalocalvet.com/Profiles/VCA-Hualapai-Animal-Hospital.aspx
Bay Area Animal Clinic,Houston,TX,(281) 488-6028,http://www.findalocalvet.com/Profiles/Bay-Area-Animal-Clinic.aspx
Craig Road Animal Hospital,Las Vegas,NV,(702) 645-0331,http://www.findalocalvet.com/Profiles/Craig-Road-Animal-Hospital.aspx
Paradise Pet Hospital,Las Vegas,NV,(702) 734-1711,http://www.findalocalvet.com/Profiles/Paradise-Pet-Hospital.aspx
Longenbaugh Veterinary Hospital,Houston,TX,(281) 856-7023,http://www.findalocalvet.com/Profiles/Longenbaugh-Veterinary-Hospital.aspx
MT Houston Animal Clinic,Houston,TX,(281) 440-4070,http://www.findalocalvet.com/Profiles/MT-Houston-Animal-Clinic.aspx
FM 1960 Animal Hospital,Houston,TX,(281) 444-4170,http://www.findalocalvet.com/Profiles/FM-1960-Animal-Hospital.aspx
West Alabama Animal Clinic,Houston,TX,(713) 528-0818,http://www.findalocalvet.com/Profiles/West-Alabama-Animal-Clinic.aspx
Bay Glen Animal Hospital,Houston,TX,(281) 480-8800,http://www.findalocalvet.com/Profiles/Bay-Glen-Animal-Hospital.aspx
Lakeside Animal Clinic,Houston,TX,(281) 493-9995,http://www.findalocalvet.com/Profiles/Lakeside-Animal-Clinic2.aspx
Aldine Animal Hospital,Houston,TX,(281) 448-3256,http://www.findalocalvet.com/Profiles/Aldine-Animal-Hospital.aspx
Animal Emergency Center of West Houston,Houston,TX,(832) 593-8387,http://www.findalocalvet.com/Profiles/Animal-Emergency-Center-of-West-Houston.aspx
Memorial Town & Country Animal Clinic,Houston,TX,(713) 464-4686,http://www.findalocalvet.com/Profiles/Memorial-Town-Country-Animal-Clinic.aspx
Neartown Animal Clinic,Houston,TX,(713) 526-1502,http://www.findalocalvet.com/Profiles/Neartown-Animal-Clinic.aspx
Wilcrest Animal Hospital,Houston,TX,(713) 781-3770,http://www.findalocalvet.com/Profiles/Wilcrest-Animal-Hospital.aspx
Central Houston Animal Hospital,Houston,TX,(713) 526-1306,http://www.findalocalvet.com/Profiles/Central-Houston-Animal-Hospital.aspx
Amity Woods Animal Hospital,Kansas City,MO,(816) 880-6650,http://www.findalocalvet.com/Profiles/Amity-Woods-Animal-Hospital.aspx
Bissonnet Southampton Vetrerinary Clinic,Houston,TX,(713) 520-8743,http://www.findalocalvet.com/Profiles/Bissonnet-Southampton-Vetrerinary-Clinic.aspx
Jersey Village Animal Hospital,Houston,TX,(713) 466-8542,http://www.findalocalvet.com/Profiles/Jersey-Village-Animal-Hospital.aspx
Animal Clinic of Platte County,Kansas City,MO,(816) 741-8338,http://www.findalocalvet.com/Profiles/Animal-Clinic-of-Platte-County.aspx
Laurel Animal Hospital,Raytown,MO,,http://www.findalocalvet.com/Profiles/Laurel-Animal-Hospital.aspx
Winrock Animal Clinic,Houston,TX,(713) 785-5551,http://www.findalocalvet.com/Profiles/Winrock-Animal-Clinic.aspx
Parkville Animal Wellness,Kansas City,MO,,http://www.findalocalvet.com/Profiles/Parkville-Animal-Wellness.aspx
Martin City Animal Hospital,Kansas City,MO,(816) 941-0070,http://www.findalocalvet.com/Profiles/Martin-City-Animal-Hospital.aspx
Raytown Gregory Animal Health,Raytown,MO,(816) 353-6681,http://www.findalocalvet.com/Profiles/Raytown-Gregory-Animal-Health.aspx
Picture Hills Pet Hospital PC,Kansas City,MO,(816) 587-3300,http://www.findalocalvet.com/Profiles/Picture-Hills-Pet-Hospital-PC.aspx
Brookside Animal Clinic,Kansas City,MO,(816) 363-2115,http://www.findalocalvet.com/Profiles/Brookside-Animal-Clinic.aspx
Beltway Animal Hospital PC,Houston,TX,,http://www.findalocalvet.com/Profiles/Beltway-Animal-Hospital-PC.aspx
Union Hill Animal Hospital,Kansas City,MO,,http://www.findalocalvet.com/Profiles/Union-Hill-Animal-Hospital.aspx
Animal Clinic of Kendallwood,Kansas City,MO,(816) 453-0700,http://www.findalocalvet.com/Profiles/Animal-Clinic-of-Kendallwood.aspx
Blue Ridge Plaza Animal Clinic,Kansas City,MO,(816) 356-2424,http://www.findalocalvet.com/Profiles/Blue-Ridge-Plaza-Animal-Clinic.aspx
Gentle Care Animal Hospital,Raleigh,NC,,http://www.findalocalvet.com/Profiles/Gentle-Care-Animal-Hospital.aspx
Country Kennels & Arrowhead Vet Services,Kansas City,MO,(816) 353-5675,http://www.findalocalvet.com/Profiles/Country-Kennels-Arrowhead-Vet-Services.aspx
Grandview Plaza Animal Clinic,Kansas City,MO,,http://www.findalocalvet.com/Profiles/Grandview-Plaza-Animal-Clinic.aspx
K C Cat Clinic,Kansas City,MO,,http://www.findalocalvet.com/Profiles/K-C-Cat-Clinic.aspx
Veterinary Specialty Hospital,Raleigh,NC,(919) 861-0109,http://www.findalocalvet.com/Profiles/Veterinary-Specialty-Hospital.aspx
Hidden Valley Animal Hospital,Raleigh,NC,,http://www.findalocalvet.com/Profiles/Hidden-Valley-Animal-Hospital.aspx
Preston Wood Animal Clinic,Houston,TX,(281) 890-1960,http://www.findalocalvet.com/Profiles/Preston-Wood-Animal-Clinic.aspx
Animal Hospital at Brier Creek,Raleigh,NC,(919) 544-2226,http://www.findalocalvet.com/Profiles/Animal-Hospital-at-Brier-Creek.aspx
"Bowman Animal Hospital and Cat Clinic, Inc.",Raleigh,NC,(919) 847-6216,http://www.findalocalvet.com/Profiles/Bowman-Animal-Hospital-and-Cat-Clinic-Inc-.aspx
Duraleigh-Oak Park Vetry Hosp,Raleigh,NC,,http://www.findalocalvet.com/Profiles/Duraleigh-Oak-Park-Vetry-Hosp.aspx
Dixie Trail Animal Clinic Incorporated,Raleigh,NC,(919) 457-1882,http://www.findalocalvet.com/Profiles/Dixie-Trail-Animal-Clinic-Incorporated.aspx
Wasatch Exotic Pet Care,Salt Lake City,UT,,http://www.findalocalvet.com/Profiles/Wasatch-Exotic-Pet-Care.aspx
Jem's Vet Care,Salt Lake City,UT,,http://www.findalocalvet.com/Profiles/Jems-Vet-Care.aspx
Noah's Ark Animal Clinic,Kansas City,MO,(816) 361-6822,http://www.findalocalvet.com/Profiles/Noahs-Ark-Animal-Clinic.aspx
Wasatch Springs Animal Hosp,Salt Lake City,UT,,http://www.findalocalvet.com/Profiles/Wasatch-Springs-Animal-Hosp.aspx
Mobile Vet Pract Raleigh Pllc,Raleigh,NC,,http://www.findalocalvet.com/Profiles/Mobile-Vet-Pract-Raleigh-Pllc.aspx
Swift Creek Animal Hospital,Raleigh,NC,,http://www.findalocalvet.com/Profiles/Swift-Creek-Animal-Hospital.aspx
A Visiting Veterinarian,Salt Lake City,UT,,http://www.findalocalvet.com/Profiles/A-Visiting-Veterinarian.aspx
Advanced Veterinary Care,Salt Lake City,UT,,http://www.findalocalvet.com/Profiles/Advanced-Veterinary-Care.aspx
Monroe Veterinary Options,Salt Lake City,UT,,http://www.findalocalvet.com/Profiles/Monroe-Veterinary-Options.aspx
Midvalley Animal Clinic,Salt Lake City,UT,,http://www.findalocalvet.com/Profiles/Midvalley-Animal-Clinic.aspx
Denkers Veterinary Hospital,South Salt Lake,UT,,http://www.findalocalvet.com/Profiles/Denkers-Veterinary-Hospital.aspx
East Valley Veterinary Clinic,Salt Lake City,UT,,http://www.findalocalvet.com/Profiles/East-Valley-Veterinary-Clinic.aspx
Humane Society of Utah,Salt Lake City,UT,,http://www.findalocalvet.com/Profiles/Humane-Society-of-Utah.aspx
Donald V Renda DVM,Salt Lake City,UT,,http://www.findalocalvet.com/Profiles/Donald-V-Renda-DVM.aspx
Salt Lake Veterinary Svc PC,Salt Lake City,UT,,http://www.findalocalvet.com/Profiles/Salt-Lake-Veterinary-Svc-PC.aspx
Hillside Veterinary Hospital,Salt Lake City,UT,,http://www.findalocalvet.com/Profiles/Hillside-Veterinary-Hospital.aspx
Banfield the Pet Hospital,Salt Lake City,UT,,http://www.findalocalvet.com/Profiles/Banfield-the-Pet-Hospital.aspx
Hollywood Pet Hospital,Portland,OR,(503) 234-9229,http://www.findalocalvet.com/Profiles/Hollywood-Pet-Hospital.aspx
Millcreek Veterinary Clinic,Salt Lake City,UT,,http://www.findalocalvet.com/Profiles/Millcreek-Veterinary-Clinic.aspx
Timberland Animal Clinic,Portland,OR,(503) 665-1194,http://www.findalocalvet.com/Profiles/Timberland-Animal-Clinic.aspx
Werntz Memorial Animal Hospital,Pittsburgh,PA,(412) 243-2401,http://www.findalocalvet.com/Profiles/Werntz-Memorial-Animal-Hospital.aspx
South Hills Animal Hospital,Pittsburgh,PA,,http://www.findalocalvet.com/Profiles/South-Hills-Animal-Hospital.aspx
Banfield the Pet Hospital,Salt Lake City,UT,,http://www.findalocalvet.com/Profiles/Banfield-the-Pet-Hospital72.aspx
Point 2 for Healthy Pets,Pittsburgh,PA,,http://www.findalocalvet.com/Profiles/Point-2-for-Healthy-Pets.aspx
Cedar Mill Veterinary Hospital,Portland,OR,(503) 644-3101,http://www.findalocalvet.com/Profiles/Cedar-Mill-Veterinary-Hospital.aspx
Always Compassionate Vet Care,Pittsburgh,PA,,http://www.findalocalvet.com/Profiles/Always-Compassionate-Vet-Care.aspx
Fox Chapel Animal Hospital Inc,Pittsburgh,PA,,http://www.findalocalvet.com/Profiles/Fox-Chapel-Animal-Hospital-Inc.aspx
Greenfield Veterinary Hospital,Pittsburgh,PA,,http://www.findalocalvet.com/Profiles/Greenfield-Veterinary-Hospital.aspx
Suburbia North Animal Hospital,Houston,TX,(281) 443-2362,http://www.findalocalvet.com/Profiles/Suburbia-North-Animal-Hospital.aspx
Healing Hearts Animal Hospital,Salt Lake City,UT,,http://www.findalocalvet.com/Profiles/Healing-Hearts-Animal-Hospital.aspx
Point Breeze Veterinary Clinic,Pittsburgh,PA,(412) 665-1810,http://www.findalocalvet.com/Profiles/Point-Breeze-Veterinary-Clinic.aspx
Champions Forest Animal Clinic,Houston,TX,(281) 586-9910,http://www.findalocalvet.com/Profiles/Champions-Forest-Animal-Clinic.aspx
Penn Hills Veterinary Hospital,Penn Hills,PA,,http://www.findalocalvet.com/Profiles/Penn-Hills-Veterinary-Hospital.aspx
Alief Animal Hospital,Houston,TX,(281) 498-6702,http://www.findalocalvet.com/Profiles/Alief-Animal-Hospital.aspx
Neutercorp Animal Populations,Houston,TX,,http://www.findalocalvet.com/Profiles/Neutercorp-Animal-Populations.aspx
Banfield the Pet Hospital,Houston,TX,,http://www.findalocalvet.com/Profiles/Banfield-the-Pet-Hospital6.aspx
Stella Link Animal Clinic,Houston,TX,(713) 666-1771,http://www.findalocalvet.com/Profiles/Stella-Link-Animal-Clinic.aspx
Allegheny North Veterinary,Pittsburgh,PA,(412) 364-5511,http://www.findalocalvet.com/Profiles/Allegheny-North-Veterinary.aspx
Foothill Animal Clinic,Salt Lake City,UT,,http://www.findalocalvet.com/Profiles/Foothill-Animal-Clinic.aspx
Copperfield Animal Clinic,Houston,TX,,http://www.findalocalvet.com/Profiles/Copperfield-Animal-Clinic.aspx
Washington Heights Veterinary,Houston,TX,,http://www.findalocalvet.com/Profiles/Washington-Heights-Veterinary.aspx
VCA Ashford Animal Hospital,Houston,TX,,http://www.findalocalvet.com/Profiles/VCA-Ashford-Animal-Hospital.aspx
Richmond Avenue Animal HOSP,Houston,TX,(832) 203-7711,http://www.findalocalvet.com/Profiles/Richmond-Avenue-Animal-HOSP.aspx
Banfield the Pet Hospital,Houston,TX,,http://www.findalocalvet.com/Profiles/Banfield-the-Pet-Hospital73.aspx
Prestonwood Animal Clinic,Houston,TX,,http://www.findalocalvet.com/Profiles/Prestonwood-Animal-Clinic.aspx
Memorial Town & Country Animal,Houston,TX,,http://www.findalocalvet.com/Profiles/Memorial-Town-Country-Animal.aspx
Gulf Coast Vetry Diagnostic,Houston,TX,,http://www.findalocalvet.com/Profiles/Gulf-Coast-Vetry-Diagnostic.aspx
Northshore Animal Hospital,Houston,TX,(713) 453-0149,http://www.findalocalvet.com/Profiles/Northshore-Animal-Hospital2.aspx
Telephone Road Dog & Cat Hosp,Houston,TX,,http://www.findalocalvet.com/Profiles/Telephone-Road-Dog-Cat-Hosp.aspx
Long Drive Dog & Cat Hospital,Houston,TX,(713) 643-0633,http://www.findalocalvet.com/Profiles/Long-Drive-Dog-Cat-Hospital.aspx
Watt Avenue Pet Hospital,Sacramento,CA,(916) 482-4084,http://www.findalocalvet.com/Profiles/Watt-Avenue-Pet-Hospital.aspx
Midtown Animal Hospital,Sacramento,CA,(916) 446-7788,http://www.findalocalvet.com/Profiles/Midtown-Animal-Hospital.aspx
Banfield the Pet Hospital,Houston,TX,,http://www.findalocalvet.com/Profiles/Banfield-the-Pet-Hospital74.aspx
Natomas Veterinary Hospital,Sacramento,CA,(916) 925-3535,http://www.findalocalvet.com/Profiles/Natomas-Veterinary-Hospital.aspx
Discovery Plaza Veterinary Clinic,Sacramento,CA,(916) 920-1555,http://www.findalocalvet.com/Profiles/Discovery-Plaza-Veterinary-Clinic.aspx
Kleinbrook Animal Hospital,Houston,TX,(281) 444-8387,http://www.findalocalvet.com/Profiles/Kleinbrook-Animal-Hospital.aspx
Eagle Creek Animal Clinic,Indianapolis,IN,(317) 291-5830,http://www.findalocalvet.com/Profiles/Eagle-Creek-Animal-Clinic.aspx
Mueller Pet Medical Center,Sacramento,CA,(916) 428-9202,http://www.findalocalvet.com/Profiles/Mueller-Pet-Medical-Center.aspx
Indiana Veterinary Medical Association,Indianapolis,IN,(317) 974-0888,http://www.findalocalvet.com/Profiles/Indiana-Veterinary-Medical-Association.aspx
South Sacramento Pet Hospital,Sacramento,CA,(916) 421-0619,http://www.findalocalvet.com/Profiles/South-Sacramento-Pet-Hospital.aspx
Avalon Animal Clinic,Indianapolis,IN,(317) 842-4618,http://www.findalocalvet.com/Profiles/Avalon-Animal-Clinic.aspx
Southport Pet Hospital,Indianapolis,IN,(317) 786-1483,http://www.findalocalvet.com/Profiles/Southport-Pet-Hospital.aspx
Briarcrest Veterinary Clinic,Houston,TX,(713) 789-8320,http://www.findalocalvet.com/Profiles/Briarcrest-Veterinary-Clinic.aspx
Broad Ripple Animal Clinic & Wellness Center,Indianapolis,IN,(317) 257-5334,http://www.findalocalvet.com/Profiles/Broad-Ripple-Animal-Clinic-Wellness-Center.aspx
Thirtieth Street Animal Hosp,Indianapolis,IN,,http://www.findalocalvet.com/Profiles/Thirtieth-Street-Animal-Hosp.aspx
VCA Shadeland Animal Hosp,Indianapolis,IN,,http://www.findalocalvet.com/Profiles/VCA-Shadeland-Animal-Hosp.aspx
Neighborhood Veterinarian,Indianapolis,IN,,http://www.findalocalvet.com/Profiles/Neighborhood-Veterinarian.aspx
South 31 Veterinary Clinic,Indianapolis,IN,,http://www.findalocalvet.com/Profiles/South-31-Veterinary-Clinic.aspx
Irvington Pet Clinic Inc,Indianapolis,IN,,http://www.findalocalvet.com/Profiles/Irvington-Pet-Clinic-Inc.aspx
Brookville Road Animal Hosp,Indianapolis,IN,,http://www.findalocalvet.com/Profiles/Brookville-Road-Animal-Hosp.aspx
FT Harrison Veterinarians,Indianapolis,IN,(317) 546-2338,http://www.findalocalvet.com/Profiles/FT-Harrison-Veterinarians.aspx
Animal Medical Ctr,Indianapolis,IN,,http://www.findalocalvet.com/Profiles/Animal-Medical-Ctr17.aspx
Shelbyville Road Veterinary,Indianapolis,IN,,http://www.findalocalvet.com/Profiles/Shelbyville-Road-Veterinary.aspx
Indianapolis Veterinary Emergency Center,Indianapolis,IN,(317) 782-4418,http://www.findalocalvet.com/Profiles/Indianapolis-Veterinary-Emergency-Center.aspx
Banfield the Pet Hospital,Houston,TX,,http://www.findalocalvet.com/Profiles/Banfield-the-Pet-Hospital5.aspx
Rockville Road Animal Hospital,Indianapolis,IN,,http://www.findalocalvet.com/Profiles/Rockville-Road-Animal-Hospital.aspx
Gulf Coast Veterinnary Specs,Houston,TX,,http://www.findalocalvet.com/Profiles/Gulf-Coast-Veterinnary-Specs.aspx
Geist Station Animal Hospital,Oaklandon,IN,,http://www.findalocalvet.com/Profiles/Geist-Station-Animal-Hospital.aspx
Geckler Veterinary Hospital,Indianapolis,IN,,http://www.findalocalvet.com/Profiles/Geckler-Veterinary-Hospital.aspx
Englewood Veterinarians,Indianapolis,IN,,http://www.findalocalvet.com/Profiles/Englewood-Veterinarians.aspx
Churchman Animal Hospital,Indianapolis,IN,,http://www.findalocalvet.com/Profiles/Churchman-Animal-Hospital.aspx
El Dorado Animal Clinic,Las Vegas,NV,,http://www.findalocalvet.com/Profiles/El-Dorado-Animal-Clinic.aspx
Pet Medical Ctr,Las Vegas,NV,,http://www.findalocalvet.com/Profiles/Pet-Medical-Ctr4.aspx
Banfield the Pet Hospital,Las Vegas,NV,,http://www.findalocalvet.com/Profiles/Banfield-the-Pet-Hospital78.aspx
VCA Decatur Animal Hospital,Las Vegas,NV,,http://www.findalocalvet.com/Profiles/VCA-Decatur-Animal-Hospital.aspx
Sun City Animal Hospital,Las Vegas,NV,,http://www.findalocalvet.com/Profiles/Sun-City-Animal-Hospital.aspx
Animal Kingdom Veterinary Hosp,Las Vegas,NV,,http://www.findalocalvet.com/Profiles/Animal-Kingdom-Veterinary-Hosp2.aspx
Banfield the Pet Hospital,Las Vegas,NV,,http://www.findalocalvet.com/Profiles/Banfield-the-Pet-Hospital77.aspx
Doggy Doctor,Las Vegas,NV,,http://www.findalocalvet.com/Profiles/Doggy-Doctor.aspx
Lafayette Road Vet Hospital,Indianapolis,IN,,http://www.findalocalvet.com/Profiles/Lafayette-Road-Vet-Hospital.aspx
El Camino Veterinary Hospital,Sacramento,CA,(916) 488-6878,http://www.findalocalvet.com/Profiles/El-Camino-Veterinary-Hospital.aspx
Gentle Doctor Animal Hospital,Las Vegas,NV,,http://www.findalocalvet.com/Profiles/Gentle-Doctor-Animal-Hospital2.aspx
Island Pet Hospital,Las Vegas,NV,(702) 645-7387,http://www.findalocalvet.com/Profiles/Island-Pet-Hospital.aspx
Caring Hands Animal Hospital,Las Vegas,NV,,http://www.findalocalvet.com/Profiles/Caring-Hands-Animal-Hospital3.aspx
Binford Pet Wellness Clinic,Indianapolis,IN,(866) 341-1408,http://www.findalocalvet.com/Profiles/Binford-Pet-Wellness-Clinic.aspx
Rainbow Animal Hospital,Las Vegas,NV,,http://www.findalocalvet.com/Profiles/Rainbow-Animal-Hospital.aspx
Park Animal Hospital,Las Vegas,NV,(702) 361-5850,http://www.findalocalvet.com/Profiles/Park-Animal-Hospital2.aspx
Lake View Animal Hospital,Las Vegas,NV,,http://www.findalocalvet.com/Profiles/Lake-View-Animal-Hospital2.aspx
Cheyenne West Animal Hospital,Las Vegas,NV,(702) 475-3523,http://www.findalocalvet.com/Profiles/Cheyenne-West-Animal-Hospital.aspx
Flamingo Pet Clinic,Las Vegas,NV,,http://www.findalocalvet.com/Profiles/Flamingo-Pet-Clinic.aspx
Pebble Road-MD Pkwy Anml Hosp,Las Vegas,NV,,http://www.findalocalvet.com/Profiles/Pebble-Road-MD-Pkwy-Anml-Hosp.aspx
Gentle Doctor Animal Hospital,Las Vegas,NV,(888) 499-6108,http://www.findalocalvet.com/Profiles/Gentle-Doctor-Animal-Hospital3.aspx
Creature Comforts Animal Hospital,Las Vegas,NV,(702) 658-7339,http://www.findalocalvet.com/Profiles/Creature-Comforts-Animal-Hospital.aspx
Pasternak Veterinary Center,West Los Angeles,CA,(310) 268-2275,http://www.findalocalvet.com/Profiles/Pasternak-Veterinary-Center.aspx
Town Center Animal Hospital,Las Vegas,NV,(702) 262-1300,http://www.findalocalvet.com/Profiles/Town-Center-Animal-Hospital.aspx
Animal Specialty Group Incorporated,Los Angeles,CA,(818) 244-7977,http://www.findalocalvet.com/Profiles/Animal-Specialty-Group-Incorporated.aspx
Veterinary Ophthalmology Svc,Las Vegas,NV,,http://www.findalocalvet.com/Profiles/Veterinary-Ophthalmology-Svc.aspx
Whitnee Chun DVM,Las Vegas,NV,,http://www.findalocalvet.com/Profiles/Whitnee-Chun-DVM.aspx
Sunrise Veterinary Clinic,Las Vegas,NV,,http://www.findalocalvet.com/Profiles/Sunrise-Veterinary-Clinic2.aspx
Overland Veterinary Clinic,Los Angeles,CA,(310) 559-2424,http://www.findalocalvet.com/Profiles/Overland-Veterinary-Clinic.aspx
Pico Blvd Pet Hospital,Los Angeles,CA,(310) 271-6186,http://www.findalocalvet.com/Profiles/Pico-Blvd-Pet-Hospital.aspx
Southwest Animal Hospital,Las Vegas,NV,,http://www.findalocalvet.com/Profiles/Southwest-Animal-Hospital.aspx
Mar Vista Animal Medical Center,Los Angeles,CA,(310) 391-6741,http://www.findalocalvet.com/Profiles/Mar-Vista-Animal-Medical-Center.aspx
Belmont Shore Veterinary Hospital,Long Beach,CA,(562) 961-0028,http://www.findalocalvet.com/Profiles/Belmont-Shore-Veterinary-Hospital.aspx
Center Sinai Animal Hospital,Los Angeles,CA,(310) 559-3770,http://www.findalocalvet.com/Profiles/Center-Sinai-Animal-Hospital.aspx
Belmont Heights Animal Hospital,Long Beach,CA,(562) 439-6871,http://www.findalocalvet.com/Profiles/Belmont-Heights-Animal-Hospital.aspx
Cahuenga Pet Hospital,Los Angeles,CA,(323) 462-0660,http://www.findalocalvet.com/Profiles/Cahuenga-Pet-Hospital.aspx
Blanco Crossing Veterinary Hospital,San Antonio,TX,(210) 764-2400,http://www.findalocalvet.com/Profiles/Blanco-Crossing-Veterinary-Hospital.aspx
Uptown Animal Hospital,Long Beach  ,CA,(562) 424-8541,http://www.findalocalvet.com/Profiles/Uptown-Animal-Hospital.aspx
Blanco North Animal Hospital,San Antonio,TX,(210) 492-7373,http://www.findalocalvet.com/Profiles/Blanco-North-Animal-Hospital.aspx
Fredericksburg Road Animal,San Antonio,TX,,http://www.findalocalvet.com/Profiles/Fredericksburg-Road-Animal.aspx
VCA Petville Animal Hospital,Los Angeles,CA,,http://www.findalocalvet.com/Profiles/VCA-Petville-Animal-Hospital.aspx
Traveling Tails Mobile Vet,San Antonio,TX,(210) 495-8245,http://www.findalocalvet.com/Profiles/Traveling-Tails-Mobile-Vet.aspx
Becker Animal Hospital,San Antonio,TX,(210) 732-5148,http://www.findalocalvet.com/Profiles/Becker-Animal-Hospital.aspx
Thomas L Hanna DVM,San Antonio,TX,,http://www.findalocalvet.com/Profiles/Thomas-L-Hanna-DVM.aspx
Pleasanton Road Animal Hospital,San Antonio,TX,(210) 922-8387,http://www.findalocalvet.com/Profiles/Pleasanton-Road-Animal-Hospital.aspx
Rancho Park Veterinary Clinic,West Los Angeles,CA,(310) 474-3398,http://www.findalocalvet.com/Profiles/Rancho-Park-Veterinary-Clinic.aspx
Deerfield Animal Hospital,San Antonio,TX,,http://www.findalocalvet.com/Profiles/Deerfield-Animal-Hospital.aspx
Richter Animal Hospital,Arlington,TX,(817) 478-8000,http://www.findalocalvet.com/Profiles/Richter-Animal-Hospital.aspx
Leon Valley Veterinary Hospital,San Antonio,TX,(210) 681-1391,http://www.findalocalvet.com/Profiles/Leon-Valley-Veterinary-Hospital.aspx
Boerne Stage Veterinary Clinic,San Antonio,TX,(210) 698-0400,http://www.findalocalvet.com/Profiles/Boerne-Stage-Veterinary-Clinic.aspx
Ten-West Bird & Animal Hosp,San Antonio,TX,,http://www.findalocalvet.com/Profiles/Ten-West-Bird-Animal-Hosp.aspx
Babcock Hills Veterinary Hospital,San Antonio,TX,(210) 697-8581,http://www.findalocalvet.com/Profiles/Babcock-Hills-Veterinary-Hospital.aspx
Corder Companion Animal Clinic,San Antonio,TX,,http://www.findalocalvet.com/Profiles/Corder-Companion-Animal-Clinic.aspx
Eagle Veterinary Hospital,San Antonio,TX,(210) 822-5211,http://www.findalocalvet.com/Profiles/Eagle-Veterinary-Hospital.aspx
Perrin 410 Animal Hospital,San Antonio,TX,(210) 650-3141,http://www.findalocalvet.com/Profiles/Perrin-410-Animal-Hospital.aspx
Loop 410 Veterinary Hospital,San Antonio,TX,(210) 824-7344,http://www.findalocalvet.com/Profiles/Loop-410-Veterinary-Hospital.aspx
Alamo Feline Health Center,San Antonio,TX,(210) 404-2287,http://www.findalocalvet.com/Profiles/Alamo-Feline-Health-Center.aspx
El Dorado Animal Hospital,San Antonio,TX,(210) 656-1444,http://www.findalocalvet.com/Profiles/El-Dorado-Animal-Hospital.aspx
Alamo Dog & Cat Hospital,San Antonio,TX,(210) 922-1231,http://www.findalocalvet.com/Profiles/Alamo-Dog-Cat-Hospital.aspx
Veterinary Imaging Center,San Antonio,TX,(210) 822-6850,http://www.findalocalvet.com/Profiles/Veterinary-Imaging-Center.aspx
Heritage Veterinary Med Center,San Antonio,TX,(210) 509-1707,http://www.findalocalvet.com/Profiles/Heritage-Veterinary-Med-Center.aspx
Cat Calls Mobile Cat Clinic,Portland,OR,,http://www.findalocalvet.com/Profiles/Cat-Calls-Mobile-Cat-Clinic.aspx
Cats & Dogs Animal Hospital,Long Beach,CA,(562) 439-4228,http://www.findalocalvet.com/Profiles/Cats-Dogs-Animal-Hospital.aspx
Holistic House Calls Vet Svc,Portland,OR,,http://www.findalocalvet.com/Profiles/Holistic-House-Calls-Vet-Svc.aspx
Barbur Blvd Veterinary Hospital,Portland,OR,(503) 564-4938,http://www.findalocalvet.com/Profiles/Barbur-Blvd-Veterinary-Hospital.aspx
Lombard Animal Hospital,Portland,OR,,http://www.findalocalvet.com/Profiles/Lombard-Animal-Hospital.aspx
Southgate Animal Clinic,Milwaukie,OR,(503) 771-0857,http://www.findalocalvet.com/Profiles/Southgate-Animal-Clinic.aspx
Holistic Pet Vet Clinic,Portland,OR,(503) 293-6666,http://www.findalocalvet.com/Profiles/Holistic-Pet-Vet-Clinic.aspx
Sunset Animal Clinic,Portland,OR,,http://www.findalocalvet.com/Profiles/Sunset-Animal-Clinic2.aspx
Southwest Farm & Home Ctr,San Antonio,TX,,http://www.findalocalvet.com/Profiles/Southwest-Farm-Home-Ctr.aspx
North Portland Veterinary Hospital,Portland,OR,(503) 285-0462,http://www.findalocalvet.com/Profiles/North-Portland-Veterinary-Hospital.aspx
Laurelhurst Veterinary Hospital,Portland,OR,(503) 536-7670,http://www.findalocalvet.com/Profiles/Laurelhurst-Veterinary-Hospital.aspx
Towne North Animal Hospital,San Antonio,TX,(210) 494-2178,http://www.findalocalvet.com/Profiles/Towne-North-Animal-Hospital.aspx
Tigard Animal Hospital,Portland,OR,,http://www.findalocalvet.com/Profiles/Tigard-Animal-Hospital.aspx
Garden Home Veterinary Clinic,Portland,OR,,http://www.findalocalvet.com/Profiles/Garden-Home-Veterinary-Clinic.aspx
St Johns Veterinary Clinic,Portland,OR,(503) 289-4996,http://www.findalocalvet.com/Profiles/St-Johns-Veterinary-Clinic2.aspx
North Portland Veterinary Hosp,Portland,OR,,http://www.findalocalvet.com/Profiles/North-Portland-Veterinary-Hosp.aspx
Randi Brannan DVM,Portland,OR,,http://www.findalocalvet.com/Profiles/Randi-Brannan-DVM.aspx
Cascade Veterinary Referral,Tigard,OR,,http://www.findalocalvet.com/Profiles/Cascade-Veterinary-Referral.aspx
Gateway Veterinary Hospital,Portland,OR,,http://www.findalocalvet.com/Profiles/Gateway-Veterinary-Hospital.aspx
Greenway Pet Clinic,Portland,OR,,http://www.findalocalvet.com/Profiles/Greenway-Pet-Clinic.aspx
Linwood Animal Clinic,Milwaukie,OR,,http://www.findalocalvet.com/Profiles/Linwood-Animal-Clinic.aspx
Rose City Veterinary Hospital,Portland,OR,(503) 232-3105,http://www.findalocalvet.com/Profiles/Rose-City-Veterinary-Hospital.aspx
Cascade Veterinary Referral Center,Tigard,OR,(503) 684-1800,http://www.findalocalvet.com/Profiles/Cascade-Veterinary-Referral-Center.aspx
Affton Veterinary Clinic,St Louis,MO,(314) 352-8600,http://www.findalocalvet.com/Profiles/Affton-Veterinary-Clinic.aspx
A Mobile Pet Clinic,Portland,OR,,http://www.findalocalvet.com/Profiles/A-Mobile-Pet-Clinic.aspx
Normandy Animal Hospital Inc,St Louis,MO,,http://www.findalocalvet.com/Profiles/Normandy-Animal-Hospital-Inc.aspx
Pearl Animal Hospital,Portland,OR,(503) 954-3393,http://www.findalocalvet.com/Profiles/Pearl-Animal-Hospital.aspx
Hollywood Cat & Dog Animal,West Hollywood,CA,,http://www.findalocalvet.com/Profiles/Hollywood-Cat-Dog-Animal.aspx
My Best Friend Veterinary Ctr,St Louis,MO,,http://www.findalocalvet.com/Profiles/My-Best-Friend-Veterinary-Ctr.aspx
Banfield the Pet Hospital,St Louis,MO,,http://www.findalocalvet.com/Profiles/Banfield-the-Pet-Hospital12.aspx
Greg L Taff DVM,St Louis,MO,,http://www.findalocalvet.com/Profiles/Greg-L-Taff-DVM.aspx
Stone Oak Veterinary Clinic,San Antonio,TX,(210) 545-6446,http://www.findalocalvet.com/Profiles/Stone-Oak-Veterinary-Clinic.aspx
Creve Coeur Animal Hospital,Saint Louis,MO,(314) 434-4300,http://www.findalocalvet.com/Profiles/Creve-Coeur-Animal-Hospital.aspx
Home Vet,St Louis,MO,(636) 227-1371,http://www.findalocalvet.com/Profiles/Home-Vet.aspx
Spoede Animal Hospital,Creve Couer,MO,(314) 569-3111,http://www.findalocalvet.com/Profiles/Spoede-Animal-Hospital.aspx
Banfield the Pet Hospital,St Louis,MO,,http://www.findalocalvet.com/Profiles/Banfield-the-Pet-Hospital11.aspx
Kingsbury Animal Hospital,Saint Louis,MO,(314) 721-6251,http://www.findalocalvet.com/Profiles/Kingsbury-Animal-Hospital.aspx
Southtown Veterinary Clinic,St Louis,MO,,http://www.findalocalvet.com/Profiles/Southtown-Veterinary-Clinic.aspx
12th St Animal Hospital & Btq,St Louis,MO,,http://www.findalocalvet.com/Profiles/12th-St-Animal-Hospital-Btq.aspx
Midway Animal Hospital,St Paul,MN,(651) 644-2100,http://www.findalocalvet.com/Profiles/Midway-Animal-Hospital3.aspx
Arch Animal Hospital,St Louis,MO,(636) 225-8387,http://www.findalocalvet.com/Profiles/Arch-Animal-Hospital.aspx
Hudson Road Animal Hospital,Woodbury,MN,(651) 739-0117,http://www.findalocalvet.com/Profiles/Hudson-Road-Animal-Hospital.aspx
Mt Scott Animal Clinic,Portland,OR,(503) 777-3919,http://www.findalocalvet.com/Profiles/Mt-Scott-Animal-Clinic.aspx
Minnesota Veterinary Hospital,Shoreview,MN,(651) 484-3331,http://www.findalocalvet.com/Profiles/Minnesota-Veterinary-Hospital.aspx
Concord Animal Hospital,St Louis,MO,,http://www.findalocalvet.com/Profiles/Concord-Animal-Hospital.aspx
Highland Animal Hospital,St Paul,MN,,http://www.findalocalvet.com/Profiles/Highland-Animal-Hospital.aspx
Arcade Animal Hospital,St Paul,MN,,http://www.findalocalvet.com/Profiles/Arcade-Animal-Hospital.aspx
East Valley Animal Clinic,Apple Valley,MN,(952) 423-6800,http://www.findalocalvet.com/Profiles/East-Valley-Animal-Clinic.aspx
Roseville Animal Hospital,Roseville,MN,,http://www.findalocalvet.com/Profiles/Roseville-Animal-Hospital.aspx
Scenic Hills Animal Hospital,Saint Paul,MN,(651) 739-4821,http://www.findalocalvet.com/Profiles/Scenic-Hills-Animal-Hospital.aspx
Century Animal Clinic,Maplewood,MN,,http://www.findalocalvet.com/Profiles/Century-Animal-Clinic.aspx
Animal Emergency Clinic,St Louis,MO,,http://www.findalocalvet.com/Profiles/Animal-Emergency-Clinic2.aspx
Grand Avenue Veterinary Center,St Paul,MN,(651) 224-3038,http://www.findalocalvet.com/Profiles/Grand-Avenue-Veterinary-Center.aspx
Como Park Animal Hospital,St Paul,MN,(651) 705-0573,http://www.findalocalvet.com/Profiles/Como-Park-Animal-Hospital.aspx
Lake Animal Hospital,White Bear Lake,MN,(651) 426-1381,http://www.findalocalvet.com/Profiles/Lake-Animal-Hospital.aspx
Mendakota Animal Hospital,Mendota Heights,MN,(651) 688-9245,http://www.findalocalvet.com/Profiles/Mendakota-Animal-Hospital.aspx
Arden Shoreview Animal Hosp,Arden Hills,MN,,http://www.findalocalvet.com/Profiles/Arden-Shoreview-Animal-Hosp.aspx
South Metro Animal Emergency Care,Apple Vallry,MN,(952) 953-3737,http://www.findalocalvet.com/Profiles/South-Metro-Animal-Emergency-Care.aspx
Maplewood Pet Care Clinic,St Paul,MN,,http://www.findalocalvet.com/Profiles/Maplewood-Pet-Care-Clinic.aspx
Veterinary Diagnostic Labs,St Paul,MN,,http://www.findalocalvet.com/Profiles/Veterinary-Diagnostic-Labs.aspx
Carver Lake Veterinary Center,Woodbury,MN,(651) 578-3290,http://www.findalocalvet.com/Profiles/Carver-Lake-Veterinary-Center.aspx
Shoreview North Oaks Animal Hospital,Shoreview,MN,(651) 255-0071,http://www.findalocalvet.com/Profiles/Shoreview-North-Oaks-Animal-Hospital.aspx
Grand Avenue Veterinary Ctr,St Paul,MN,,http://www.findalocalvet.com/Profiles/Grand-Avenue-Veterinary-Ctr.aspx
Keller Lake Animal Hospital,Maplewood,MN,,http://www.findalocalvet.com/Profiles/Keller-Lake-Animal-Hospital.aspx
Valley Creek Road Animal Hosp,Woodbury,MN,,http://www.findalocalvet.com/Profiles/Valley-Creek-Road-Animal-Hosp.aspx
Maryland Avenue Pet Hospital,St Paul,MN,,http://www.findalocalvet.com/Profiles/Maryland-Avenue-Pet-Hospital.aspx
Rice Pet Clinic & Hospital,Saint Paul,MN,(651) 484-6222,http://www.findalocalvet.com/Profiles/Rice-Pet-Clinic-Hospital.aspx
Silver Lake Animal Hospital,St Paul,MN,(651) 748-1900,http://www.findalocalvet.com/Profiles/Silver-Lake-Animal-Hospital.aspx
Catherine Udams DVM,Woodbury,MN,,http://www.findalocalvet.com/Profiles/Catherine-Udams-DVM.aspx
Abby Pet Hospital,Fresno,CA,(559) 442-1127,http://www.findalocalvet.com/Profiles/Abby-Pet-Hospital.aspx
Kaka'ako Pet Hospital,Honolulu,HI,(808) 592-9999,http://www.findalocalvet.com/Profiles/Kakaako-Pet-Hospital.aspx
Hawaii Veterinary Medical Association,Honolulu,HI,(808) 733-8828,http://www.findalocalvet.com/Profiles/Hawaii-Veterinary-Medical-Association.aspx
Animal Critical Care,Lakewood,CO,,http://www.findalocalvet.com/Profiles/Animal-Critical-Care.aspx
Pet Doctor,Honolulu,HI,,http://www.findalocalvet.com/Profiles/Pet-Doctor2.aspx
Overland Animal Hospital & Pet Resort,Denver,CO,(303) 223-9787,http://www.findalocalvet.com/Profiles/Overland-Animal-Hospital-Pet-Resort.aspx
Southport Animal Hospital,Fort Lauderdale,FL,(954) 522-2577,http://www.findalocalvet.com/Profiles/Southport-Animal-Hospital.aspx
Frankford Crest Animal Hospital,Dallas,TX,(972) 398-2111,http://www.findalocalvet.com/Profiles/Frankford-Crest-Animal-Hospital.aspx
Polo Springs Veterinary Hospital,Colorado Springs,CO,(719) 264-8384,http://www.findalocalvet.com/Profiles/Polo-Springs-Veterinary-Hospital.aspx
Animal Ark Veterinary Clinic,Chicago,IL,(773) 442-6500,http://www.findalocalvet.com/Profiles/Animal-Ark-Veterinary-Clinic.aspx
Southtowns Animal Hospital,Buffalo,NY,(716) 824-4108,http://www.findalocalvet.com/Profiles/Southtowns-Animal-Hospital.aspx
Ellicott Small Animal Hospital,Buffalo,NY,(716) 852-8276,http://www.findalocalvet.com/Profiles/Ellicott-Small-Animal-Hospital.aspx
Ridglea West Animal Hospital,Fort Worth,TX,(817) 839-7058,http://www.findalocalvet.com/Profiles/Ridglea-West-Animal-Hospital.aspx
Animal Hospital of Park Glen,Fort Worth,TX,(817) 581-1277,http://www.findalocalvet.com/Profiles/Animal-Hospital-of-Park-Glen.aspx
North Academy & Briargate Veterinary Hospitals,Colorado Springs,CO,(719) 599-4443,http://www.findalocalvet.com/Profiles/North-Academy-Briargate-Veterinary-Hospitals.aspx
Animal Hospital of SW Ft Worth,Fort Worth,TX,(817) 292-8655,http://www.findalocalvet.com/Profiles/Animal-Hospital-of-SW-Ft-Worth.aspx
Harris Parkway Animal Hospital,Fort Worth,TX,(817) 294-8007,http://www.findalocalvet.com/Profiles/Harris-Parkway-Animal-Hospital.aspx
Shield Stone Pet Hospital Incorporated,Fresno,CA,(559) 222-2800,http://www.findalocalvet.com/Profiles/Shield-Stone-Pet-Hospital-Incorporated.aspx
Westcreek Animal Clinic,Fort Worth,TX,(817) 294-0390,http://www.findalocalvet.com/Profiles/Westcreek-Animal-Clinic.aspx
Aaron Animal Clinic,Parma,OH,(216) 901-9980,http://www.findalocalvet.com/Profiles/Aaron-Animal-Clinic.aspx
Atrium Animal Hospital,Charlotte,NC,(704) 542-2000,http://www.findalocalvet.com/Profiles/Atrium-Animal-Hospital.aspx
Eastwood Animal Clinic,El Paso,TX,(915) 593-0713,http://www.findalocalvet.com/Profiles/Eastwood-Animal-Clinic.aspx
Animal Pain Management Center,Snyder,NY,(716) 839-1100,http://www.findalocalvet.com/Profiles/Animal-Pain-Management-Center.aspx
Blue Cross Small Animal Clinic,Buffalo,NY,(716) 832-2800,http://www.findalocalvet.com/Profiles/Blue-Cross-Small-Animal-Clinic.aspx
Snow-Ridge Veterinary Hospital,Cleveland,OH,(440) 845-7744,http://www.findalocalvet.com/Profiles/Snow-Ridge-Veterinary-Hospital.aspx
Belvoir Pet Hospital,Cleveland,OH,,http://www.findalocalvet.com/Profiles/Belvoir-Pet-Hospital.aspx
Just Cats Hospital,Cleveland,OH,,http://www.findalocalvet.com/Profiles/Just-Cats-Hospital.aspx
Animal Hospital-Fairview Park,Cleveland,OH,,http://www.findalocalvet.com/Profiles/Animal-Hospital-Fairview-Park.aspx
Metro West Emergency Veterinary Center,Fort Worth,TX,(817) 731-3734,http://www.findalocalvet.com/Profiles/Metro-West-Emergency-Veterinary-Center.aspx
Ysleta Veterinary Clinic,El Paso,TX,,http://www.findalocalvet.com/Profiles/Ysleta-Veterinary-Clinic.aspx
Alta Mesa Animal Clinic,Fort Worth,TX,,http://www.findalocalvet.com/Profiles/Alta-Mesa-Animal-Clinic.aspx
Joycares Personalized Pet Care,Cleveland,OH,(216) 281-8701,http://www.findalocalvet.com/Profiles/Joycares-Personalized-Pet-Care.aspx
Dr Anni's Pet Clinic,Cleveland,OH,,http://www.findalocalvet.com/Profiles/Dr-Annis-Pet-Clinic.aspx
The Animal Hospitable Veterinary Clinic,Williamsville,NY,(716) 634-2240,http://www.findalocalvet.com/Profiles/The-Animal-Hospitable-Veterinary-Clinic.aspx
Northtown Animal Hospital,Buffalo,NY,,http://www.findalocalvet.com/Profiles/Northtown-Animal-Hospital.aspx
Harris Hill Animal Hospital,Williamsville,NY,(716) 634-1000,http://www.findalocalvet.com/Profiles/Harris-Hill-Animal-Hospital.aspx
Veterinary & Internal Medicine,Amherst,NY,,http://www.findalocalvet.com/Profiles/Veterinary-Internal-Medicine.aspx
Community Pet Care Hospital,Lackawanna,NY,,http://www.findalocalvet.com/Profiles/Community-Pet-Care-Hospital.aspx
Northeast Veterinary Clinic,El Paso,TX,(915) 755-2231,http://www.findalocalvet.com/Profiles/Northeast-Veterinary-Clinic.aspx
Independence Veterinary Clinic,Charlotte,NC,(704) 841-1313,http://www.findalocalvet.com/Profiles/Independence-Veterinary-Clinic.aspx
Amherst Small Animal Hospital,Buffalo,NY,(716) 839-1100,http://www.findalocalvet.com/Profiles/Amherst-Small-Animal-Hospital.aspx
Carolina Veterinary Speclst,Charlotte,NC,,http://www.findalocalvet.com/Profiles/Carolina-Veterinary-Speclst.aspx
A-Animal Clinic & Boarding,Fort Worth,TX,(817) 731-1494,http://www.findalocalvet.com/Profiles/A-Animal-Clinic-Boarding.aspx
Buckley Animal Hospital PC,Charlotte,NC,,http://www.findalocalvet.com/Profiles/Buckley-Animal-Hospital-PC.aspx
Archdale Animal Hospital PA,Charlotte,NC,,http://www.findalocalvet.com/Profiles/Archdale-Animal-Hospital-PA.aspx
Nicks Veterinary Hospital,Charlotte,NC,,http://www.findalocalvet.com/Profiles/Nicks-Veterinary-Hospital.aspx
Hickory Grove Animal Hospital,Charlotte,NC,(704) 563-5858,http://www.findalocalvet.com/Profiles/Hickory-Grove-Animal-Hospital.aspx
Banfield the Pet Hospital,Charlotte,NC,,http://www.findalocalvet.com/Profiles/Banfield-the-Pet-Hospital30.aspx
Lyndhurst Animal Clinic,Lyndhurst,OH,(440) 449-6644,http://www.findalocalvet.com/Profiles/Lyndhurst-Animal-Clinic.aspx
Integrative Pet Care,Chicago,IL,(773) 269-2964,http://www.findalocalvet.com/Profiles/Integrative-Pet-Care.aspx
Roscoe Village Animal Hospital,Chicago,IL,(773) 549-3131,http://www.findalocalvet.com/Profiles/Roscoe-Village-Animal-Hospital.aspx
Banfield the Pet Hospital,Charlotte,NC,,http://www.findalocalvet.com/Profiles/Banfield-the-Pet-Hospital31.aspx
Best Friends Veterinary Center,Chicago,IL,(773) 267-0086,http://www.findalocalvet.com/Profiles/Best-Friends-Veterinary-Center.aspx
Cotswold Animal Hospital,Charlotte,NC,(704) 365-3787,http://www.findalocalvet.com/Profiles/Cotswold-Animal-Hospital.aspx
Monroe Road Animal Hospital,Charlotte,NC,(704) 333-3336,http://www.findalocalvet.com/Profiles/Monroe-Road-Animal-Hospital.aspx
Banfield the Pet Hospital,Chicago,IL,,http://www.findalocalvet.com/Profiles/Banfield-the-Pet-Hospital10.aspx
North Center Animal Hospital,Chicago,IL,(773) 327-5050,http://www.findalocalvet.com/Profiles/North-Center-Animal-Hospital.aspx
Park Cedar Animal Hospital Pa,Charlotte,NC,,http://www.findalocalvet.com/Profiles/Park-Cedar-Animal-Hospital-Pa.aspx
Milwaukee Animal Hospital,Chicago,IL,,http://www.findalocalvet.com/Profiles/Milwaukee-Animal-Hospital.aspx
Woodlawn Animal Hospital,Chicago,IL,,http://www.findalocalvet.com/Profiles/Woodlawn-Animal-Hospital.aspx
Paws Chicago Spay-Neuter,Chicago,IL,,http://www.findalocalvet.com/Profiles/Paws-Chicago-Spay-Neuter.aspx
Diversey Animal Hospital,Chicago,IL,,http://www.findalocalvet.com/Profiles/Diversey-Animal-Hospital.aspx
Blum Animal Hospital,Chicago,IL,(773) 327-4446,http://www.findalocalvet.com/Profiles/Blum-Animal-Hospital.aspx
West Wrigley Animal Hospital LLC,Chicago,IL,(773) 528-8387,http://www.findalocalvet.com/Profiles/West-Wrigley-Animal-Hospital-LLC.aspx
Chicago Center for Veterinary Medicine,Chicago,IL,(312) 226-2588,http://www.findalocalvet.com/Profiles/Chicago-Center-for-Veterinary-Medicine.aspx
Cat Hospital of Chicago,Chicago,IL,,http://www.findalocalvet.com/Profiles/Cat-Hospital-of-Chicago.aspx
Jewell Animal Hospital,Chicago,IL,(773) 271-1901,http://www.findalocalvet.com/Profiles/Jewell-Animal-Hospital.aspx
Escanaba Animal Hospital,Chicago,IL,(773) 375-2433,http://www.findalocalvet.com/Profiles/Escanaba-Animal-Hospital.aspx
Rosedale Veterinary Housecalls,Detroit,MI,,http://www.findalocalvet.com/Profiles/Rosedale-Veterinary-Housecalls.aspx
Hurley Dog & Cat Hospital,Detroit,MI,(313) 863-5350,http://www.findalocalvet.com/Profiles/Hurley-Dog-Cat-Hospital.aspx
Spay Neuter Your Pet,Dallas,TX,(214) 349-7697,http://www.findalocalvet.com/Profiles/Spay-Neuter-Your-Pet.aspx
North Dallas Veterinary Hospital,Dallas,TX,(972) 620-9012,http://www.findalocalvet.com/Profiles/North-Dallas-Veterinary-Hospital.aspx
Jefferson Park Animal Hosp,Chicago,IL,,http://www.findalocalvet.com/Profiles/Jefferson-Park-Animal-Hosp.aspx
Downtown Veterinary Hospital,Detroit,MI,(313) 832-7282,http://www.findalocalvet.com/Profiles/Downtown-Veterinary-Hospital.aspx
Casa Linda Animal Clinic,Dallas,TX,(214) 328-5445,http://www.findalocalvet.com/Profiles/Casa-Linda-Animal-Clinic.aspx
Veterinary Referral Center of North Texas,Dallas,TX,(972) 407-9571,http://www.findalocalvet.com/Profiles/Veterinary-Referral-Center-of-North-Texas.aspx
East Lake Veterinary Hospital PC,Dallas,TX,(214) 342-3100,http://www.findalocalvet.com/Profiles/East-Lake-Veterinary-Hospital-PC.aspx
Valley View Pet Health Center,Farmers Branch,TX,(972) 247-2242,http://www.findalocalvet.com/Profiles/Valley-View-Pet-Health-Center.aspx
Marquette Animal Hospital,Chicago,IL,,http://www.findalocalvet.com/Profiles/Marquette-Animal-Hospital.aspx
Bent Tree Animal Hospital,Dallas,TX,,http://www.findalocalvet.com/Profiles/Bent-Tree-Animal-Hospital.aspx
Prestonwood Pet Clinic,Dallas,TX,,http://www.findalocalvet.com/Profiles/Prestonwood-Pet-Clinic.aspx
Mc Kinney Animal Clinic,Dallas,TX,,http://www.findalocalvet.com/Profiles/Mc-Kinney-Animal-Clinic.aspx
Dr. Moomaw's Veterinary Housecall Practice,Dallas,TX,(214) 339-1766,http://www.findalocalvet.com/Profiles/Dr-Moomaws-Veterinary-Housecall-Practice.aspx
North West Dallas Animal Clinic,Dallas,TX,(972) 488-5599,http://www.findalocalvet.com/Profiles/North-West-Dallas-Animal-Clinic.aspx
Rutherford Veterinary Hospital,Dallas,TX,(214) 826-4166,http://www.findalocalvet.com/Profiles/Rutherford-Veterinary-Hospital.aspx
Animal House Calls,Cincinnati,OH,(513) 598-8584,http://www.findalocalvet.com/Profiles/Animal-House-Calls.aspx
Summertree Animal Clinic,Dallas,TX,(972) 387-4168,http://www.findalocalvet.com/Profiles/Summertree-Animal-Clinic.aspx
Town & Country Pet Hospital,Dallas,TX,(972) 788-4321,http://www.findalocalvet.com/Profiles/Town-Country-Pet-Hospital.aspx
Towne Square Animal Clinic,Cincinnati,OH,(513) 793-1875,http://www.findalocalvet.com/Profiles/Towne-Square-Animal-Clinic.aspx
Grady Veterinary Hospital,Cincinnati,OH,(513) 931-8675,http://www.findalocalvet.com/Profiles/Grady-Veterinary-Hospital.aspx
Animal Hospital-Hamilton Ave,Cincinnati,OH,,http://www.findalocalvet.com/Profiles/Animal-Hospital-Hamilton-Ave.aspx
David C Cortman DVM,Cincinnati,OH,,http://www.findalocalvet.com/Profiles/David-C-Cortman-DVM.aspx
City Pet Incorporated,Dallas,TX,(214) 252-9973,http://www.findalocalvet.com/Profiles/City-Pet-Incorporated.aspx
North Tollway Pet Hospital,Dallas,TX,(972) 733-3340,http://www.findalocalvet.com/Profiles/North-Tollway-Pet-Hospital.aspx
Beechmont Pet Grooming,Cincinnati,OH,,http://www.findalocalvet.com/Profiles/Beechmont-Pet-Grooming.aspx
Cincinnati Animal Referra & Emergency Care Center,Cincinnati,OH,(513) 530-0911,http://www.findalocalvet.com/Profiles/Cincinnati-Animal-Referra-Emergency-Care-Center.aspx
Beechmont Pet Hospital,Cincinnati,OH,(513) 232-4450,http://www.findalocalvet.com/Profiles/Beechmont-Pet-Hospital.aspx
VCA Village Animal Hospital,Cincinnati,OH,,http://www.findalocalvet.com/Profiles/VCA-Village-Animal-Hospital.aspx
Western Hills Animal Hospital,Cincinnati,OH,,http://www.findalocalvet.com/Profiles/Western-Hills-Animal-Hospital.aspx
Northgate Animal Hospital,Colorado Springs,CO,(719) 481-3080,http://www.findalocalvet.com/Profiles/Northgate-Animal-Hospital.aspx
Gold Coast Animal Hospital,Chicago,HI,(312) 337-7387,http://www.findalocalvet.com/Profiles/Gold-Coast-Animal-Hospital.aspx
Airway Veterinary Hospital,Colorado Springs,CO,(719) 623-5461,http://www.findalocalvet.com/Profiles/Airway-Veterinary-Hospital.aspx
North Powers Animal Hospital,Colorado Springs,CO,(719) 282-1222,http://www.findalocalvet.com/Profiles/North-Powers-Animal-Hospital.aspx
Peach Grove Animal Hospital,Cincinnati,OH,,http://www.findalocalvet.com/Profiles/Peach-Grove-Animal-Hospital.aspx
Briargate Blvd Animal Hospital,Colorado Springs,CO,(719) 357-8971,http://www.findalocalvet.com/Profiles/Briargate-Blvd-Animal-Hospital.aspx
VCA Tennessee Avenue Animal,Cincinnati,OH,,http://www.findalocalvet.com/Profiles/VCA-Tennessee-Avenue-Animal.aspx
Alpine at Noah's Ark,Colorado Springs,CO,,http://www.findalocalvet.com/Profiles/Alpine-at-Noahs-Ark.aspx
Rocky Mountain Equine Clinic,Colorado Springs,CO,,http://www.findalocalvet.com/Profiles/Rocky-Mountain-Equine-Clinic.aspx
Dublin Animal Hospital,Colorado Springs,CO,(719) 355-8165,http://www.findalocalvet.com/Profiles/Dublin-Animal-Hospital.aspx
Rockrimmon Animal Hospital,Colorado Springs,CO,(719) 599-4438,http://www.findalocalvet.com/Profiles/Rockrimmon-Animal-Hospital.aspx
Aspen View Veterinary Hospital,Colorado Springs,CO,(719) 638-6363,http://www.findalocalvet.com/Profiles/Aspen-View-Veterinary-Hospital.aspx
Deer Park Veterinary Hospital,Cincinnati,OH,(513) 791-8550,http://www.findalocalvet.com/Profiles/Deer-Park-Veterinary-Hospital.aspx
Eye Specialists for Animals,Colorado Springs,CO,,http://www.findalocalvet.com/Profiles/Eye-Specialists-for-Animals2.aspx
Mariemont Veterinary Clinic,Cincinnati,OH,,http://www.findalocalvet.com/Profiles/Mariemont-Veterinary-Clinic.aspx
Black Forest Veterinary Clinic,Colorado Springs,CO,,http://www.findalocalvet.com/Profiles/Black-Forest-Veterinary-Clinic.aspx
Animal Dental Care,Colorado Springs,CO,,http://www.findalocalvet.com/Profiles/Animal-Dental-Care.aspx
Austin Bluffs Animal Clinic,Colorado Springs,CO,,http://www.findalocalvet.com/Profiles/Austin-Bluffs-Animal-Clinic.aspx
Animal Dental Care,Colorado Springs,CO,(719) 536-9949,http://www.findalocalvet.com/Profiles/Animal-Dental-Care2.aspx
Westside Animal Hospital,Colorado Springs,CO,(719) 632-6111,http://www.findalocalvet.com/Profiles/Westside-Animal-Hospital3.aspx
Mountain Shadows Pet Hospital,Colorado Springs,CO,(719) 533-0910,http://www.findalocalvet.com/Profiles/Mountain-Shadows-Pet-Hospital.aspx
Animal Health Care Specialists,Denver,CO,(303) 288-6800,http://www.findalocalvet.com/Profiles/Animal-Health-Care-Specialists.aspx
Evans East Animal Hospital,Denver,CO,(303) 626-2085,http://www.findalocalvet.com/Profiles/Evans-East-Animal-Hospital.aspx
Washington Park Veterinary,Denver,CO,(303) 871-8050,http://www.findalocalvet.com/Profiles/Washington-Park-Veterinary.aspx
Brown Veterinary Hospital,Colorado Springs,CO,(719) 355-8694,http://www.findalocalvet.com/Profiles/Brown-Veterinary-Hospital.aspx
Gillett Veterinary Clinic,Westminster,CO,(303) 469-5540,http://www.findalocalvet.com/Profiles/Gillett-Veterinary-Clinic.aspx
Bijou Animal Hospital,Colorado Springs,CO,,http://www.findalocalvet.com/Profiles/Bijou-Animal-Hospital.aspx
29th Ave Animal Hospital,Denver,CO,,http://www.findalocalvet.com/Profiles/29th-Ave-Animal-Hospital.aspx
Westside Animal Hospital,Colorado Springs,CO,,http://www.findalocalvet.com/Profiles/Westside-Animal-Hospital5.aspx
Aariana Animal Hospital Assoc,Colorado Springs,CO,,http://www.findalocalvet.com/Profiles/Aariana-Animal-Hospital-Assoc.aspx
Tender Touch Animal Hospital,Denver,CO,(303) 733-2728,http://www.findalocalvet.com/Profiles/Tender-Touch-Animal-Hospital.aspx
Holistic Care for Animals,Wheat Ridge,CO,(303) 421-5424,http://www.findalocalvet.com/Profiles/Holistic-Care-for-Animals.aspx
Urban Veterinary Care,Denver,CO,,http://www.findalocalvet.com/Profiles/Urban-Veterinary-Care.aspx
Banfield the Pet Hospital,Northglenn,CO,,http://www.findalocalvet.com/Profiles/Banfield-the-Pet-Hospital75.aspx
Eye Specialists for Animals,Denver,CO,,http://www.findalocalvet.com/Profiles/Eye-Specialists-for-Animals.aspx
Arbor Pet Hospital,Fort Lauderdale,FL,(954) 565-1896,http://www.findalocalvet.com/Profiles/Arbor-Pet-Hospital.aspx
Acupunture & Natural Medicine for Pets,Fort Lauderdale,FL,(954) 731-2000,http://www.findalocalvet.com/Profiles/Acupunture-Natural-Medicine-for-Pets.aspx
Doctor Dan's Animal Clinic,Davie,FL,(954) 680-5777,http://www.findalocalvet.com/Profiles/Doctor-Dans-Animal-Clinic.aspx
Indian Trace Animal Hospitals,Weston,FL,(954) 384-7147,http://www.findalocalvet.com/Profiles/Indian-Trace-Animal-Hospitals.aspx
Hometown Animal Hospital & All Pets Dental,Weston,FL,(954) 734-6368,http://www.findalocalvet.com/Profiles/Hometown-Animal-Hospital-All-Pets-Dental.aspx
Mile Hi Mobile Veterinary Svc,Denver,CO,,http://www.findalocalvet.com/Profiles/Mile-Hi-Mobile-Veterinary-Svc.aspx
Imperial Point Animal Hospital,Fort Lauderdale,FL,(954) 771-0156,http://www.findalocalvet.com/Profiles/Imperial-Point-Animal-Hospital.aspx
Overland Animal Hospital & Pet,Denver,CO,,http://www.findalocalvet.com/Profiles/Overland-Animal-Hospital-Pet.aspx
Extra Care Animal Hospital,Davie,FL,(954) 370-0203,http://www.findalocalvet.com/Profiles/Extra-Care-Animal-Hospital.aspx
Heroes Spay & Neuter Clinic,Oakland Park,FL,,http://www.findalocalvet.com/Profiles/Heroes-Spay-Neuter-Clinic.aspx
Dr. Boaz Man Veterinarian,Fort Lauderdale,FL,(561) 289-1424,http://www.findalocalvet.com/Profiles/Dr-Boaz-Man-Veterinarian.aspx
Family Pet Medical Center,Fort Lauderdale,FL,(954) 567-2500,http://www.findalocalvet.com/Profiles/Family-Pet-Medical-Center.aspx
East Columbus Veterinary Hospital,Columbus,OH,(614) 444-8639,http://www.findalocalvet.com/Profiles/East-Columbus-Veterinary-Hospital.aspx
Animal Clinic-North,Northglenn,CO,,http://www.findalocalvet.com/Profiles/Animal-Clinic-North.aspx
Animal Emergency & Medical Hospital,Columbus,OH,(614) 567-1025,http://www.findalocalvet.com/Profiles/Animal-Emergency-Medical-Hospital.aspx
Davie Veterinary Clinic,Davie,FL,(954) 581-4971,http://www.findalocalvet.com/Profiles/Davie-Veterinary-Clinic.aspx
Shank Animal Hospital,Fort Lauderdale,FL,(954) 564-1263,http://www.findalocalvet.com/Profiles/Shank-Animal-Hospital.aspx
Seiler Animal Hospital,Fort Lauderdale,FL,(954) 491-1222,http://www.findalocalvet.com/Profiles/Seiler-Animal-Hospital.aspx
AMC Animal Hospital,Fort Lauderdale,FL,(941) 741-2776,http://www.findalocalvet.com/Profiles/AMC-Animal-Hospital.aspx
Suburban Animal Clinic,Columbus,OH,(614) 276-5479,http://www.findalocalvet.com/Profiles/Suburban-Animal-Clinic.aspx
The Vet Clinic East,Columbus,OH,(614) 837-3008,http://www.findalocalvet.com/Profiles/The-Vet-Clinic-East.aspx
Morse Road Veterinary Clinic,Columbus,OH,(614) 885-8070,http://www.findalocalvet.com/Profiles/Morse-Road-Veterinary-Clinic.aspx
Great Southern Animal Hospital,Columbus,OH,,http://www.findalocalvet.com/Profiles/Great-Southern-Animal-Hospital.aspx
Animal Care Unlimited,Colombus,OH,(614) 766-2317,http://www.findalocalvet.com/Profiles/Animal-Care-Unlimited.aspx
Vet Clinic,Worthington,OH,(614) 885-3878,http://www.findalocalvet.com/Profiles/Vet-Clinic.aspx
Animal Care Foundation,Honolulu,HI,,http://www.findalocalvet.com/Profiles/Animal-Care-Foundation.aspx
Cat Clinic,Honolulu,HI,,http://www.findalocalvet.com/Profiles/Cat-Clinic.aspx
Weston Road Animal Hospital,Weston,FL,(954) 389-5656,http://www.findalocalvet.com/Profiles/Weston-Road-Animal-Hospital.aspx
Capital Veterinary Referral Center,Columbus,OH,(614) 870-0480,http://www.findalocalvet.com/Profiles/Capital-Veterinary-Referral-Center.aspx
Hawaii Veterinary Vision Care,Honolulu,HI,,http://www.findalocalvet.com/Profiles/Hawaii-Veterinary-Vision-Care.aspx
"Aloha Animal Hospital Associates, Inc.",Honolulu,HI,(808) 734-2242,http://www.findalocalvet.com/Profiles/Aloha-Animal-Hospital-Associates-Inc-.aspx
Equine Medicine,Honolulu,HI,,http://www.findalocalvet.com/Profiles/Equine-Medicine.aspx
Island Veterinary Care,Honolulu,HI,,http://www.findalocalvet.com/Profiles/Island-Veterinary-Care.aspx
Animal Clinic Inc,Honolulu,HI,,http://www.findalocalvet.com/Profiles/Animal-Clinic-Inc.aspx
Pet Medical Center & Spa,Fresno,CA,(559) 436-4444,http://www.findalocalvet.com/Profiles/Pet-Medical-Center-Spa.aspx
Georgesville Road Animal Hosp,Columbus,OH,,http://www.findalocalvet.com/Profiles/Georgesville-Road-Animal-Hosp.aspx
Georgesville Road Animal Hospital,Columbus,OH,(614) 272-0162,http://www.findalocalvet.com/Profiles/Georgesville-Road-Animal-Hospital.aspx
North Pointe Animal Hospital,Fresno,CA,(559) 434-5470,http://www.findalocalvet.com/Profiles/North-Pointe-Animal-Hospital.aspx
Sierra View Animal Hospital,Fresno,CA,(559) 432-1200,http://www.findalocalvet.com/Profiles/Sierra-View-Animal-Hospital.aspx
Fifth & Kenny Animal Hospital,Columbus,OH,,http://www.findalocalvet.com/Profiles/Fifth-Kenny-Animal-Hospital.aspx
Emmerson Animal Hospital,Boston,MA,(617) 825-3560,http://www.findalocalvet.com/Profiles/Emmerson-Animal-Hospital.aspx
East Boston Animal Hospital,East Boston,MA,(617) 567-0101,http://www.findalocalvet.com/Profiles/East-Boston-Animal-Hospital.aspx
Academy Animal Hospital,Baltimore,MD,(410) 483-5162,http://www.findalocalvet.com/Profiles/Academy-Animal-Hospital.aspx
AAA Veterinary House Calls,Boston,MA,(617) 227-8270,http://www.findalocalvet.com/Profiles/AAA-Veterinary-House-Calls.aspx
Citypets Veterinary Care and Wellness,Baltimore,MD,(410) 752-7122,http://www.findalocalvet.com/Profiles/Citypets-Veterinary-Care-and-Wellness.aspx
Kokua Pet Clinic,Honolulu,HI,,http://www.findalocalvet.com/Profiles/Kokua-Pet-Clinic.aspx
Pet Well Veterinary HealthCare,Atlanta,GA,(404) 856-7500,http://www.findalocalvet.com/Profiles/Pet-Well-Veterinary-HealthCare.aspx
Aina Haina Pet Hospital Inc,Honolulu,HI,,http://www.findalocalvet.com/Profiles/Aina-Haina-Pet-Hospital-Inc.aspx
East Atlanta Animal Clinic PC,Atlanta,GA,(404) 523-8765,http://www.findalocalvet.com/Profiles/East-Atlanta-Animal-Clinic-PC.aspx
Standifer's Animal Clinic,Homewood,AL,(205) 871-8186,http://www.findalocalvet.com/Profiles/Standifers-Animal-Clinic.aspx
Cat Hospital At Towson,Baltimore,MD,(410) 377-7900,http://www.findalocalvet.com/Profiles/Cat-Hospital-At-Towson.aspx
Cahaba Mountain Brook Animal,Birmingham,AL,(205) 967-6759,http://www.findalocalvet.com/Profiles/Cahaba-Mountain-Brook-Animal.aspx
Columbiana Road Pet Wellness Center,Vestavia Hills,AL,(205) 824-1575,http://www.findalocalvet.com/Profiles/Columbiana-Road-Pet-Wellness-Center.aspx
South Shades Crest Animal Clinic,Birmingham,AL,(205) 987-4838,http://www.findalocalvet.com/Profiles/South-Shades-Crest-Animal-Clinic.aspx
Alamo Pet Clinic,Pantego,TX,(817) 303-7700,http://www.findalocalvet.com/Profiles/Alamo-Pet-Clinic.aspx
The Metropolitan Veterinary Hospital,Birmingham,AL,(205) 988-0880,http://www.findalocalvet.com/Profiles/The-Metropolitan-Veterinary-Hospital.aspx
Riverview Animal Clinic PC,Birmingham,AL,(205) 991-9580,http://www.findalocalvet.com/Profiles/Riverview-Animal-Clinic-PC.aspx
Pet Emergency Treatment Incorporated,Anchorage,AK,(907) 274-5636,http://www.findalocalvet.com/Profiles/Pet-Emergency-Treatment-Incorporated.aspx
Dunwoody Animal Hospital PC,Atlanta,GA,(770) 394-4030,http://www.findalocalvet.com/Profiles/Dunwoody-Animal-Hospital-PC.aspx
Highland Animal Clinic,Anchorage,AK,,http://www.findalocalvet.com/Profiles/Highland-Animal-Clinic.aspx
Animal Hospital of Worthington,Worthington,OH,,http://www.findalocalvet.com/Profiles/Animal-Hospital-of-Worthington.aspx
Lake Austin Blvd Animal Hosp,Austin,TX,(512) 474-8888,http://www.findalocalvet.com/Profiles/Lake-Austin-Blvd-Animal-Hosp.aspx
Veterinary Specialists of Ak,Anchorage,AK,,http://www.findalocalvet.com/Profiles/Veterinary-Specialists-of-Ak.aspx
Mobile Veterinary Services,West Lake Hills,TX,(512) 476-4938,http://www.findalocalvet.com/Profiles/Mobile-Veterinary-Services.aspx
Oliver Animal Hospital,Austin,TX,(512) 892-1000,http://www.findalocalvet.com/Profiles/Oliver-Animal-Hospital.aspx
Brodie Animal Hospital,Austin,TX,(512) 892-3486,http://www.findalocalvet.com/Profiles/Brodie-Animal-Hospital.aspx
Alaska Veterinary Clinic,Anchorage,AK,,http://www.findalocalvet.com/Profiles/Alaska-Veterinary-Clinic2.aspx
Pet Stop,Anchorage,AK,,http://www.findalocalvet.com/Profiles/Pet-Stop.aspx
Sand Lake Animal Hospital,Anchorage,AK,,http://www.findalocalvet.com/Profiles/Sand-Lake-Animal-Hospital.aspx
West Anchorage Veterinary Clnc,Anchorage,AK,,http://www.findalocalvet.com/Profiles/West-Anchorage-Veterinary-Clnc.aspx
Wells Branch Pet & Bird Clinic,Austin,TX,(512) 339-8472,http://www.findalocalvet.com/Profiles/Wells-Branch-Pet-Bird-Clinic.aspx
Mobile Cat & Dog Vet,Austin,TX,(512) 502-1000,http://www.findalocalvet.com/Profiles/Mobile-Cat-Dog-Vet.aspx
Kathy Doty DVM,Anchorage,AK,,http://www.findalocalvet.com/Profiles/Kathy-Doty-DVM.aspx
Hillside Pet Clinic,Anchorage,AK,,http://www.findalocalvet.com/Profiles/Hillside-Pet-Clinic2.aspx
VCA East Anchorage Animal,Anchorage,AK,,http://www.findalocalvet.com/Profiles/VCA-East-Anchorage-Animal.aspx
Capital Area Vet Specialists,Austin,TX,(512) 388-0944,http://www.findalocalvet.com/Profiles/Capital-Area-Vet-Specialists.aspx
Austin Vet Care,Austin,TX,(512) 459-4336,http://www.findalocalvet.com/Profiles/Austin-Vet-Care.aspx
Cornerstone Animal Hospital,Anchorage,AK,,http://www.findalocalvet.com/Profiles/Cornerstone-Animal-Hospital.aspx
"Northern Lights Veterinary and Laser Center, Inc",Anchorage,AK,(907) 276-2340,http://www.findalocalvet.com/Profiles/Northern-Lights-Veterinary-and-Laser-Center-Inc.aspx
Chester Valley Veterinary Hosp,Anchorage,AK,,http://www.findalocalvet.com/Profiles/Chester-Valley-Veterinary-Hosp.aspx
College Village Animal Clinic,Anchorage,AK,,http://www.findalocalvet.com/Profiles/College-Village-Animal-Clinic.aspx
Alaska Veterinary Clinic,Anchorage,AK,,http://www.findalocalvet.com/Profiles/Alaska-Veterinary-Clinic.aspx
VCA Alpine Animal Hospital,Anchorage,AK,,http://www.findalocalvet.com/Profiles/VCA-Alpine-Animal-Hospital.aspx
Southside Animal Hospital,Anchorage,AK,,http://www.findalocalvet.com/Profiles/Southside-Animal-Hospital2.aspx
Southside Animal Hospital,Birmingham,AL,,http://www.findalocalvet.com/Profiles/Southside-Animal-Hospital.aspx
Diamond Animal Hospital,Anchorage,AK,,http://www.findalocalvet.com/Profiles/Diamond-Animal-Hospital.aspx
James E Gaarder DVM,Anchorage,AK,,http://www.findalocalvet.com/Profiles/James-E-Gaarder-DVM.aspx
Northern Lights Veterinary,Anchorage,AK,,http://www.findalocalvet.com/Profiles/Northern-Lights-Veterinary.aspx
Gully Animal Hospital,Arlington,TX,(817) 468-2349,http://www.findalocalvet.com/Profiles/Gully-Animal-Hospital.aspx
Richter Animal Hospital & Pet Resort,Arlington,TX,(817) 478-8000,http://www.findalocalvet.com/Profiles/Richter-Animal-Hospital-Pet-Resort.aspx
Lakeview Pet Wellness Ctr Inc,Birmingham,AL,,http://www.findalocalvet.com/Profiles/Lakeview-Pet-Wellness-Ctr-Inc.aspx
VCA Bering Sea Animal,Anchorage,AK,,http://www.findalocalvet.com/Profiles/VCA-Bering-Sea-Animal.aspx
Creature Comfort Animal Clinic,Arlington,TX,(817) 472-0404,http://www.findalocalvet.com/Profiles/Creature-Comfort-Animal-Clinic.aspx
Liberty Animal Hospital,Birmingham,AL,,http://www.findalocalvet.com/Profiles/Liberty-Animal-Hospital.aspx
Vulcan Park Animal Care,Homewood,AL,,http://www.findalocalvet.com/Profiles/Vulcan-Park-Animal-Care.aspx
Kelley Animal Hospital,Birmingham,AL,(205) 833-9400,http://www.findalocalvet.com/Profiles/Kelley-Animal-Hospital.aspx
I 20 Animal Medical Center,Arlington,TX,(817) 478-9238,http://www.findalocalvet.com/Profiles/I-20-Animal-Medical-Center.aspx
Kirby J Warren DVM,Arlington,TX,,http://www.findalocalvet.com/Profiles/Kirby-J-Warren-DVM.aspx
Montclair Animal Clinic,Birmingham,AL,,http://www.findalocalvet.com/Profiles/Montclair-Animal-Clinic.aspx
Pet Vet Animal Hospital,Vestavia Hills,AL,(205) 824-2077,http://www.findalocalvet.com/Profiles/Pet-Vet-Animal-Hospital2.aspx
Caldwell Mill Animal Clinic,Birmingham,AL,,http://www.findalocalvet.com/Profiles/Caldwell-Mill-Animal-Clinic.aspx
Sanford Oaks Animal Clinic,Arlington,TX,(817) 460-4441,http://www.findalocalvet.com/Profiles/Sanford-Oaks-Animal-Clinic.aspx
Dr Elizabeth Gibbins Vet,Birmingham,AL,,http://www.findalocalvet.com/Profiles/Dr-Elizabeth-Gibbins-Vet.aspx
SouthLake Animal Hospital,Hoover,AL,(205) 988-8732,http://www.findalocalvet.com/Profiles/SouthLake-Animal-Hospital2.aspx
Banfield the Pet Hospital,Birmingham,AL,,http://www.findalocalvet.com/Profiles/Banfield-the-Pet-Hospital48.aspx
Cats Love Housecalls,Austin,TX,(512) 343-9200,http://www.findalocalvet.com/Profiles/Cats-Love-Housecalls.aspx
Spicewood Springs Animal Hospital,Austin,TX,(512) 345-2727,http://www.findalocalvet.com/Profiles/Spicewood-Springs-Animal-Hospital.aspx
Capital Veterinary Clinic,Austin,TX,(512) 442-1496,http://www.findalocalvet.com/Profiles/Capital-Veterinary-Clinic.aspx
Southlake Animal Hospital,Birmingham,AL,,http://www.findalocalvet.com/Profiles/Southlake-Animal-Hospital.aspx
Parkway Veterinary Clinic,Birmingham,AL,,http://www.findalocalvet.com/Profiles/Parkway-Veterinary-Clinic.aspx
Circle C Animal Hospital,Austin,TX,(512) 288-5888,http://www.findalocalvet.com/Profiles/Circle-C-Animal-Hospital.aspx
Manchaca Road Animal Hospital,Austin,TX,(512) 442-6744,http://www.findalocalvet.com/Profiles/Manchaca-Road-Animal-Hospital.aspx
Austin Hills Mobile Veterinary Services,Austin,TX,(512) 266-3501,http://www.findalocalvet.com/Profiles/Austin-Hills-Mobile-Veterinary-Services.aspx
Westlake Animal Hospital,West Lake Hills,TX,(512) 329-5854,http://www.findalocalvet.com/Profiles/Westlake-Animal-Hospital.aspx
Pet Wellness Ctr,Birmingham,AL,,http://www.findalocalvet.com/Profiles/Pet-Wellness-Ctr.aspx
Emergency Animal Hospital,Austin,TX,,http://www.findalocalvet.com/Profiles/Emergency-Animal-Hospital2.aspx
Red Mountain Animal Medical,Birmingham,AL,,http://www.findalocalvet.com/Profiles/Red-Mountain-Animal-Medical.aspx
Central Texas Veterinary Specs,Austin,TX,,http://www.findalocalvet.com/Profiles/Central-Texas-Veterinary-Specs.aspx
Best Vet,Austin,TX,(512) 336-9663,http://www.findalocalvet.com/Profiles/Best-Vet.aspx
Alternatives for Animal Health,Austin,TX,(512) 288-5400,http://www.findalocalvet.com/Profiles/Alternatives-for-Animal-Health.aspx
Banfield the Pet Hospital,Birmingham,AL,,http://www.findalocalvet.com/Profiles/Banfield-the-Pet-Hospital47.aspx
Research Pet & Bird Hospital,Austin,TX,(512) 258-2577,http://www.findalocalvet.com/Profiles/Research-Pet-Bird-Hospital.aspx
Caring Hands Animal Hosp LLC,Bee Cave,TX,(512) 263-9292,http://www.findalocalvet.com/Profiles/Caring-Hands-Animal-Hosp-LLC.aspx
Manchaca Village Veterinary,Austin,TX,(512) 282-1326,http://www.findalocalvet.com/Profiles/Manchaca-Village-Veterinary.aspx
VCA Ben White Animal Hosp,Austin,TX,,http://www.findalocalvet.com/Profiles/VCA-Ben-White-Animal-Hosp.aspx
Four Paws at Four Points,Austin,TX,(512) 258-7447,http://www.findalocalvet.com/Profiles/Four-Paws-at-Four-Points.aspx
Feather & Fur Animal Hospital,Austin,TX,(512) 291-4000,http://www.findalocalvet.com/Profiles/Feather-Fur-Animal-Hospital.aspx
Altadena Valley Animal Clinic,Cahaba Heights,AL,,http://www.findalocalvet.com/Profiles/Altadena-Valley-Animal-Clinic.aspx
Abraham Veterinary Clinic,Austin,TX,(512) 472-5879,http://www.findalocalvet.com/Profiles/Abraham-Veterinary-Clinic.aspx
Brykerwood Veterinary Clinic,Austin,TX,,http://www.findalocalvet.com/Profiles/Brykerwood-Veterinary-Clinic.aspx
Northwest Austin Veterinary,Austin,TX,(512) 250-8048,http://www.findalocalvet.com/Profiles/Northwest-Austin-Veterinary.aspx
Spangler Animal Clinic,Austin,TX,(512) 452-7671,http://www.findalocalvet.com/Profiles/Spangler-Animal-Clinic.aspx
Austin Urban Vet Ctr,Austin,TX,(512) 476-2882,http://www.findalocalvet.com/Profiles/Austin-Urban-Vet-Ctr.aspx
Buckhead Animal Clinic,Atlanta,GA,(404) 873-3771,http://www.findalocalvet.com/Profiles/Buckhead-Animal-Clinic.aspx
Standifer Animal Clinic,Homewood,AL,,http://www.findalocalvet.com/Profiles/Standifer-Animal-Clinic.aspx
Cheshire Animal Clinic,Atlanta,GA,(404) 320-6555,http://www.findalocalvet.com/Profiles/Cheshire-Animal-Clinic.aspx
C E Walton DVM,Atlanta,GA,,http://www.findalocalvet.com/Profiles/C-E-Walton-DVM.aspx
Belle Isle Animal Clinic,Atlanta,GA,,http://www.findalocalvet.com/Profiles/Belle-Isle-Animal-Clinic.aspx
Dunwoody Veterinary Center,Atlanta,GA,(770) 394-5004,http://www.findalocalvet.com/Profiles/Dunwoody-Veterinary-Center.aspx
Centre Court Veterinary Clinic,Atlanta,GA,(404) 252-9200,http://www.findalocalvet.com/Profiles/Centre-Court-Veterinary-Clinic.aspx
Burnet Road Animal Hospital,Austin,TX,(512) 452-7606,http://www.findalocalvet.com/Profiles/Burnet-Road-Animal-Hospital.aspx
Georgia Veterinary Medical Association,Atlanta,GA,(678) 309-9800,http://www.findalocalvet.com/Profiles/Georgia-Veterinary-Medical-Association.aspx
Peachtree Hills Animal Hospital,Atlanta,CA,(404) 812-9880,http://www.findalocalvet.com/Profiles/Peachtree-Hills-Animal-Hospital.aspx
Pet EP,Atlanta,GA,,http://www.findalocalvet.com/Profiles/Pet-EP.aspx
Collier Animal Hospital,Atlanta,GA,(404) 477-0200,http://www.findalocalvet.com/Profiles/Collier-Animal-Hospital.aspx
Inman Animal Hospital,Atlanta,GA,(404) 584-8761,http://www.findalocalvet.com/Profiles/Inman-Animal-Hospital.aspx
Atlanta Veterinary Skin & Allergy Clinic,Atlanta,GA,(770) 936-8922,http://www.findalocalvet.com/Profiles/Atlanta-Veterinary-Skin-Allergy-Clinic.aspx
M Lance Hirsh Veterinary Ctr,Atlanta,GA,,http://www.findalocalvet.com/Profiles/M-Lance-Hirsh-Veterinary-Ctr.aspx
Mobile Veterinary Services,Atlanta,GA,(770) 220-2477,http://www.findalocalvet.com/Profiles/Mobile-Veterinary-Services2.aspx
Banfield the Pet Hospital,East Point,GA,,http://www.findalocalvet.com/Profiles/Banfield-the-Pet-Hospital52.aspx
